{"type":"FeatureCollection","attribution":"GeoNames (geonames.org), CC BY 4.0","features":[{"type":"Feature","geometry":{"type":"Point","coordinates":[-114.3725,62.4541]},"properties":{"name":"Yellowknife","alt":[],"pop":20340,"region":"NT","cc":"CA","code":"PPLA"}},{"type":"Feature","geometry":{"type":"Point","coordinates":[-51.7216,64.1835]},"properties":{"name":"Nuuk","alt":["Godthåb"],"pop":14798,"region":"Sermersooq","cc":"GL","code":"PPLC"}},{"type":"Feature","geometry":{"type":"Point","coordinates":[-97.8558,55.7435]},"properties":{"name":"Thompson","alt":[],"pop":13678,"region":"MB","cc":"CA","code":"PPL"}},{"type":"Feature","geometry":{"type":"Point","coordinates":[-60.3258,53.3038]},"properties":{"name":"Happy Valley-Goose Bay","alt":[],"pop":7572,"region":"NL","cc":"CA","code":"PPL"}},{"type":"Feature","geometry":{"type":"Point","coordinates":[-68.5173,63.747]},"properties":{"name":"Iqaluit","alt":["Frobisher Bay"],"pop":7429,"region":"NU","cc":"CA","code":"PPLA"}},{"type":"Feature","geometry":{"type":"Point","coordinates":[-66.9114,52.9463]},"properties":{"name":"Labrador City","alt":[],"pop":7220,"region":"NL","cc":"CA","code":"PPL"}},{"type":"Feature","geometry":{"type":"Point","coordinates":[-53.6735,66.9395]},"properties":{"name":"Sisimiut","alt":["Holsteinsborg"],"pop":5227,"region":"Qeqqata","cc":"GL","code":"PPLA"}},{"type":"Feature","geometry":{"type":"Point","coordinates":[-51.0986,69.2198]},"properties":{"name":"Ilulissat","alt":["Jakobshavn"],"pop":4413,"region":"Avannaata","cc":"GL","code":"PPLA"}},{"type":"Feature","geometry":{"type":"Point","coordinates":[-115.7999,60.8156]},"properties":{"name":"Hay River","alt":[],"pop":3528,"region":"NT","cc":"CA","code":"PPL"}},{"type":"Feature","geometry":{"type":"Point","coordinates":[-133.7282,68.3617]},"properties":{"name":"Inuvik","alt":[],"pop":3243,"region":"NT","cc":"CA","code":"PPL"}},{"type":"Feature","geometry":{"type":"Point","coordinates":[-46.0356,60.7184]},"properties":{"name":"Qaqortoq","alt":["Julianehåb"],"pop":3224,"region":"Kujalleq","cc":"GL","code":"PPLA"}},{"type":"Feature","geometry":{"type":"Point","coordinates":[-52.8637,68.7087]},"properties":{"name":"Aasiaat","alt":["Egedesminde"],"pop":3005,"region":"Qeqertalik","cc":"GL","code":"PPLA"}},{"type":"Feature","geometry":{"type":"Point","coordinates":[-92.0853,62.8091]},"properties":{"name":"Rankin Inlet","alt":["Kangiqliniq"],"pop":2975,"region":"NU","cc":"CA","code":"PPLL"}},{"type":"Feature","geometry":{"type":"Point","coordinates":[-94.0585,61.1088]},"properties":{"name":"Arviat","alt":[],"pop":2864,"region":"NU","cc":"CA","code":"PPLL"}},{"type":"Feature","geometry":{"type":"Point","coordinates":[-68.3997,58.1073]},"properties":{"name":"Kuujjuaq","alt":["Fort Chimo"],"pop":2668,"region":"QC","cc":"CA","code":"PPL"}},{"type":"Feature","geometry":{"type":"Point","coordinates":[-111.8887,60.0044]},"properties":{"name":"Fort Smith","alt":[],"pop":2542,"region":"NT","cc":"CA","code":"PPL"}},{"type":"Feature","geometry":{"type":"Point","coordinates":[-52.8982,65.4151]},"properties":{"name":"Maniitsoq","alt":["Sukkertoppen"],"pop":2534,"region":"Qeqqata","cc":"GL","code":"PPL"}},{"type":"Feature","geometry":{"type":"Point","coordinates":[-77.2741,60.0357]},"properties":{"name":"Puvirnituq","alt":["Povungnituk"],"pop":2129,"region":"QC","cc":"CA","code":"PPL"}},{"type":"Feature","geometry":{"type":"Point","coordinates":[-96.0212,64.3201]},"properties":{"name":"Baker Lake","alt":["Qamani'tuaq"],"pop":2061,"region":"NU","cc":"CA","code":"PPLL"}},{"type":"Feature","geometry":{"type":"Point","coordinates":[-81.7999,69.3777]},"properties":{"name":"Igloolik","alt":["Iglulik"],"pop":2049,"region":"NU","cc":"CA","code":"PPLL"}},{"type":"Feature","geometry":{"type":"Point","coordinates":[-55.5974,51.3704]},"properties":{"name":"St. Anthony","alt":[],"pop":2049,"region":"NL","cc":"CA","code":"PPL"}},{"type":"Feature","geometry":{"type":"Point","coordinates":[-37.6368,65.6145]},"properties":{"name":"Tasiilaq","alt":["Ammassalik"],"pop":1985,"region":"Sermersooq","cc":"GL","code":"PPL"}},{"type":"Feature","geometry":{"type":"Point","coordinates":[-66.8654,52.9001]},"properties":{"name":"Wabush","alt":[],"pop":1964,"region":"NL","cc":"CA","code":"PPL"}},{"type":"Feature","geometry":{"type":"Point","coordinates":[-78.1014,58.4547]},"properties":{"name":"Inukjuak","alt":["Port Harrison"],"pop":1821,"region":"QC","cc":"CA","code":"PPL"}},{"type":"Feature","geometry":{"type":"Point","coordinates":[-105.0548,69.1149]},"properties":{"name":"Cambridge Bay","alt":["Iqaluktuuttiaq"],"pop":1760,"region":"NU","cc":"CA","code":"PPLL"}},{"type":"Feature","geometry":{"type":"Point","coordinates":[-116.0464,62.8025]},"properties":{"name":"Behchokǫ̀","alt":[],"pop":1746,"region":"NT","cc":"CA","code":"PPL"}},{"type":"Feature","geometry":{"type":"Point","coordinates":[-77.9595,72.6992]},"properties":{"name":"Pond Inlet","alt":["Mittimatalik"],"pop":1555,"region":"NU","cc":"CA","code":"PPLL"}},{"type":"Feature","geometry":{"type":"Point","coordinates":[-65.7,66.1464]},"properties":{"name":"Pangnirtung","alt":["Panniqtuuq"],"pop":1504,"region":"NU","cc":"CA","code":"PPLL"}},{"type":"Feature","geometry":{"type":"Point","coordinates":[-52.1255,70.6744]},"properties":{"name":"Uummannaq","alt":[],"pop":1407,"region":"Avannaata","cc":"GL","code":"PPL"}},{"type":"Feature","geometry":{"type":"Point","coordinates":[-76.5437,64.2338]},"properties":{"name":"Kinngait","alt":["Cape Dorset"],"pop":1396,"region":"NU","cc":"CA","code":"PPLL"}},{"type":"Feature","geometry":{"type":"Point","coordinates":[-115.0965,67.8274]},"properties":{"name":"Kugluktuk","alt":["Coppermine"],"pop":1382,"region":"NU","cc":"CA","code":"PPLL"}},{"type":"Feature","geometry":{"type":"Point","coordinates":[-95.8784,68.626]},"properties":{"name":"Gjoa Haven","alt":["Uqsuqtuuq"],"pop":1349,"region":"NU","cc":"CA","code":"PPLL"}},{"type":"Feature","geometry":{"type":"Point","coordinates":[-46.0506,60.913]},"properties":{"name":"Narsaq","alt":[],"pop":1346,"region":"Kujalleq","cc":"GL","code":"PPL"}},{"type":"Feature","geometry":{"type":"Point","coordinates":[-49.6678,61.994]},"properties":{"name":"Paamiut","alt":["Frederikshåb"],"pop":1308,"region":"Sermersooq","cc":"GL","code":"PPL"}},{"type":"Feature","geometry":{"type":"Point","coordinates":[-86.2437,66.5291]},"properties":{"name":"Naujaat","alt":["Repulse Bay"],"pop":1225,"region":"NU","cc":"CA","code":"PPLL"}},{"type":"Feature","geometry":{"type":"Point","coordinates":[-61.6955,56.5419]},"properties":{"name":"Nain","alt":["Nunainguk"],"pop":1204,"region":"NL","cc":"CA","code":"PPLL"}},{"type":"Feature","geometry":{"type":"Point","coordinates":[-45.2407,60.1417]},"properties":{"name":"Nanortalik","alt":[],"pop":1185,"region":"Kujalleq","cc":"GL","code":"PPL"}},{"type":"Feature","geometry":{"type":"Point","coordinates":[-68.5899,70.4723]},"properties":{"name":"Clyde River","alt":["Kangiqtugaapik"],"pop":1181,"region":"NU","cc":"CA","code":"PPLL"}},{"type":"Feature","geometry":{"type":"Point","coordinates":[-56.1493,72.7836]},"properties":{"name":"Upernavik","alt":[],"pop":1129,"region":"Avannaata","cc":"GL","code":"PPL"}},{"type":"Feature","geometry":{"type":"Point","coordinates":[-121.3516,61.8627]},"properties":{"name":"Fort Simpson","alt":[],"pop":1100,"region":"NT","cc":"CA","code":"PPL"}},{"type":"Feature","geometry":{"type":"Point","coordinates":[-51.1922,68.8193]},"properties":{"name":"Qasigiannguit","alt":[],"pop":1081,"region":"Qeqertalik","cc":"GL","code":"PPL"}},{"type":"Feature","geometry":{"type":"Point","coordinates":[-75.6434,62.2041]},"properties":{"name":"Salluit","alt":["Sugluk"],"pop":1075,"region":"QC","cc":"CA","code":"PPL"}},{"type":"Feature","geometry":{"type":"Point","coordinates":[-60.1459,53.5187]},"properties":{"name":"Sheshatshiu","alt":[],"pop":1049,"region":"NL","cc":"CA","code":"PPL"}},{"type":"Feature","geometry":{"type":"Point","coordinates":[-83.1654,64.1383]},"properties":{"name":"Coral Harbour","alt":["Salliq"],"pop":1035,"region":"NU","cc":"CA","code":"PPL"}},{"type":"Feature","geometry":{"type":"Point","coordinates":[-126.8329,65.282]},"properties":{"name":"Norman Wells","alt":[],"pop":1027,"region":"NT","cc":"CA","code":"PPL"}},{"type":"Feature","geometry":{"type":"Point","coordinates":[-79.2258,56.5411]},"properties":{"name":"Sanikiluaq","alt":[],"pop":1010,"region":"NU","cc":"CA","code":"PPLL"}},{"type":"Feature","geometry":{"type":"Point","coordinates":[-94.7081,56.3475]},"properties":{"name":"Gillam","alt":[],"pop":1007,"region":"MB","cc":"CA","code":"PPL"}},{"type":"Feature","geometry":{"type":"Point","coordinates":[-49.7833,62.1167]},"properties":{"name":"Qeqertarsuaq","alt":["Godhavn"],"pop":986,"region":"Sermersooq","cc":"GL","code":"PPL"}},{"type":"Feature","geometry":{"type":"Point","coordinates":[-133.0342,69.4447]},"properties":{"name":"Tuktoyaktuk","alt":[],"pop":978,"region":"NT","cc":"CA","code":"PPL"}},{"type":"Feature","geometry":{"type":"Point","coordinates":[-65.9525,58.6914]},"properties":{"name":"Kangiqsualujjuaq","alt":["George River"],"pop":956,"region":"QC","cc":"CA","code":"PPL"}},{"type":"Feature","geometry":{"type":"Point","coordinates":[-94.1667,58.7681]},"properties":{"name":"Churchill","alt":[],"pop":899,"region":"MB","cc":"CA","code":"PPL"}},{"type":"Feature","geometry":{"type":"Point","coordinates":[-81.236,68.7913]},"properties":{"name":"Sanirajak","alt":["Hall Beach"],"pop":891,"region":"NU","cc":"CA","code":"PPLL"}},{"type":"Feature","geometry":{"type":"Point","coordinates":[-61.1242,55.9156]},"properties":{"name":"Natuashish","alt":[],"pop":856,"region":"NL","cc":"CA","code":"PPL"}},{"type":"Feature","geometry":{"type":"Point","coordinates":[-85.1506,73.0375]},"properties":{"name":"Arctic Bay","alt":["Ikpiarjuk"],"pop":841,"region":"NU","cc":"CA","code":"PPLL"}},{"type":"Feature","geometry":{"type":"Point","coordinates":[-53.5368,69.2472]},"properties":{"name":"Qeqertarsuaq","alt":["Godhavn"],"pop":839,"region":"Qeqertalik","cc":"GL","code":"PPL"}},{"type":"Feature","geometry":{"type":"Point","coordinates":[-71.9603,61.5985]},"properties":{"name":"Kangiqsujuaq","alt":["Wakeham Bay"],"pop":837,"region":"QC","cc":"CA","code":"PPL"}},{"type":"Feature","geometry":{"type":"Point","coordinates":[-134.8854,67.4386]},"properties":{"name":"Fort McPherson","alt":[],"pop":700,"region":"NT","cc":"CA","code":"PPL"}},{"type":"Feature","geometry":{"type":"Point","coordinates":[-56.8314,51.5168]},"properties":{"name":"L'Anse-au-Loup","alt":[],"pop":692,"region":"NL","cc":"CA","code":"PPL"}},{"type":"Feature","geometry":{"type":"Point","coordinates":[-77.7624,55.2759]},"properties":{"name":"Kuujjuarapik","alt":["Great Whale River"],"pop":686,"region":"QC","cc":"CA","code":"PPL"}},{"type":"Feature","geometry":{"type":"Point","coordinates":[-64.0085,53.5315]},"properties":{"name":"Churchill Falls","alt":[],"pop":650,"region":"NL","cc":"CA","code":"PPLL"}},{"type":"Feature","geometry":{"type":"Point","coordinates":[-69.2315,77.4667]},"properties":{"name":"Qaanaaq","alt":["Thule"],"pop":646,"region":"Avannaata","cc":"GL","code":"PPL"}},{"type":"Feature","geometry":{"type":"Point","coordinates":[-78.1993,60.8006]},"properties":{"name":"Akulivik","alt":[],"pop":642,"region":"QC","cc":"CA","code":"PPL"}},{"type":"Feature","geometry":{"type":"Point","coordinates":[-60.2032,55.4674]},"properties":{"name":"Hopedale","alt":["Agvituk"],"pop":625,"region":"NL","cc":"CA","code":"PPL"}},{"type":"Feature","geometry":{"type":"Point","coordinates":[-117.6528,61.3503]},"properties":{"name":"Fort Providence","alt":[],"pop":618,"region":"NT","cc":"CA","code":"PPL"}},{"type":"Feature","geometry":{"type":"Point","coordinates":[-55.4646,51.5168]},"properties":{"name":"St. Lunaire-Griquet","alt":[],"pop":603,"region":"NL","cc":"CA","code":"PPL"}},{"type":"Feature","geometry":{"type":"Point","coordinates":[-135.0107,68.2191]},"properties":{"name":"Aklavik","alt":[],"pop":590,"region":"NT","cc":"CA","code":"PPL"}},{"type":"Feature","geometry":{"type":"Point","coordinates":[-60.1315,53.5335]},"properties":{"name":"North West River","alt":[],"pop":560,"region":"NL","cc":"CA","code":"PPL"}},{"type":"Feature","geometry":{"type":"Point","coordinates":[-76.5495,56.553]},"properties":{"name":"Umiujaq","alt":[],"pop":541,"region":"QC","cc":"CA","code":"PPL"}},{"type":"Feature","geometry":{"type":"Point","coordinates":[-123.4056,65.1984]},"properties":{"name":"Deline","alt":[],"pop":533,"region":"NT","cc":"CA","code":"PPL"}},{"type":"Feature","geometry":{"type":"Point","coordinates":[-123.4737,60.2395]},"properties":{"name":"Fort Liard","alt":[],"pop":530,"region":"NT","cc":"CA","code":"PPL"}},{"type":"Feature","geometry":{"type":"Point","coordinates":[-53.4641,68.3065]},"properties":{"name":"Kangaatsiaq","alt":[],"pop":520,"region":"05","cc":"GL","code":"PPL"}},{"type":"Feature","geometry":{"type":"Point","coordinates":[-128.6374,66.257]},"properties":{"name":"Fort Good Hope","alt":[],"pop":516,"region":"NT","cc":"CA","code":"PPL"}},{"type":"Feature","geometry":{"type":"Point","coordinates":[-50.6894,67.0088]},"properties":{"name":"Kangerlussuaq","alt":["Søndre Strømfjord"],"pop":508,"region":"Qeqqata","cc":"GL","code":"PPL"}},{"type":"Feature","geometry":{"type":"Point","coordinates":[-69.6147,61.0337]},"properties":{"name":"Quaqtaq","alt":[],"pop":453,"region":"QC","cc":"CA","code":"PPL"}},{"type":"Feature","geometry":{"type":"Point","coordinates":[-57.2209,74.5785]},"properties":{"name":"Kullorsuaq","alt":[],"pop":453,"region":"Avannaata","cc":"GL","code":"PPL"}},{"type":"Feature","geometry":{"type":"Point","coordinates":[-57.018,53.7082]},"properties":{"name":"Cartwright","alt":[],"pop":439,"region":"NL","cc":"CA","code":"PPL"}},{"type":"Feature","geometry":{"type":"Point","coordinates":[-69.8701,62.8473]},"properties":{"name":"Kimmirut","alt":["Lake Harbour"],"pop":426,"region":"NU","cc":"CA","code":"PPLL"}},{"type":"Feature","geometry":{"type":"Point","coordinates":[-69.9276,58.6959]},"properties":{"name":"Tasiujaq","alt":[],"pop":420,"region":"QC","cc":"CA","code":"PPL"}},{"type":"Feature","geometry":{"type":"Point","coordinates":[-77.9159,62.4174]},"properties":{"name":"Ivujivik","alt":[],"pop":414,"region":"QC","cc":"CA","code":"PPL"}},{"type":"Feature","geometry":{"type":"Point","coordinates":[-113.6727,61.1707]},"properties":{"name":"Fort Resolution","alt":[],"pop":412,"region":"NT","cc":"CA","code":"PPL"}},{"type":"Feature","geometry":{"type":"Point","coordinates":[-56.298,52.5501]},"properties":{"name":"Port Hope Simpson","alt":[],"pop":403,"region":"NL","cc":"CA","code":"PPL"}},{"type":"Feature","geometry":{"type":"Point","coordinates":[-90.705,63.3421]},"properties":{"name":"Chesterfield Inlet","alt":["Igluligaarjuk"],"pop":397,"region":"NU","cc":"CA","code":"PPLL"}},{"type":"Feature","geometry":{"type":"Point","coordinates":[-117.7716,70.7364]},"properties":{"name":"Ulukhaktok","alt":[],"pop":396,"region":"NT","cc":"CA","code":"PPL"}},{"type":"Feature","geometry":{"type":"Point","coordinates":[-125.5741,64.9017]},"properties":{"name":"Tulita","alt":[],"pop":396,"region":"NT","cc":"CA","code":"PPL"}},{"type":"Feature","geometry":{"type":"Point","coordinates":[-56.6648,51.3501]},"properties":{"name":"Savage Cove-Sandy Cove-Shoal Cove East","alt":[],"pop":385,"region":"NL","cc":"CA","code":"PPL"}},{"type":"Feature","geometry":{"type":"Point","coordinates":[-56.9648,51.4668]},"properties":{"name":"Forteau","alt":[],"pop":377,"region":"NL","cc":"CA","code":"PPL"}},{"type":"Feature","geometry":{"type":"Point","coordinates":[-59.1776,55.0866]},"properties":{"name":"Makkovik","alt":[],"pop":365,"region":"NL","cc":"CA","code":"PPL"}},{"type":"Feature","geometry":{"type":"Point","coordinates":[-21.9622,70.4846]},"properties":{"name":"Ittoqqortoormiit","alt":["Scoresbysund"],"pop":345,"region":"Sermersooq","cc":"GL","code":"PPL"}},{"type":"Feature","geometry":{"type":"Point","coordinates":[-55.837,52.3055]},"properties":{"name":"Mary's Harbour","alt":[],"pop":312,"region":"NL","cc":"CA","code":"PPL"}},{"type":"Feature","geometry":{"type":"Point","coordinates":[-56.7981,51.2334]},"properties":{"name":"Anchor Point","alt":[],"pop":305,"region":"NL","cc":"CA","code":"PPL"}},{"type":"Feature","geometry":{"type":"Point","coordinates":[-110.736,62.4056]},"properties":{"name":"Łutselk'e","alt":[],"pop":303,"region":"NT","cc":"CA","code":"PPL"}},{"type":"Feature","geometry":{"type":"Point","coordinates":[-124.0689,69.351]},"properties":{"name":"Paulatuk","alt":[],"pop":298,"region":"NT","cc":"CA","code":"PPL"}},{"type":"Feature","geometry":{"type":"Point","coordinates":[-53.3428,65.825]},"properties":{"name":"Kangaamiut","alt":[],"pop":293,"region":"Qeqqata","cc":"GL","code":"PPL"}},{"type":"Feature","geometry":{"type":"Point","coordinates":[-56.1201,52.7696]},"properties":{"name":"Charlottetown","alt":[],"pop":292,"region":"NL","cc":"CA","code":"PPL"}},{"type":"Feature","geometry":{"type":"Point","coordinates":[-56.7409,51.3003]},"properties":{"name":"Flower's Cove","alt":[],"pop":272,"region":"NL","cc":"CA","code":"PPL"}},{"type":"Feature","geometry":{"type":"Point","coordinates":[-56.0575,73.369]},"properties":{"name":"Tasiusaq","alt":[],"pop":252,"region":"Avannaata","cc":"GL","code":"PPL"}},{"type":"Feature","geometry":{"type":"Point","coordinates":[-52.8618,68.233]},"properties":{"name":"Niaqornaarsuk","alt":[],"pop":249,"region":"05","cc":"GL","code":"PPL"}},{"type":"Feature","geometry":{"type":"Point","coordinates":[-37.0048,65.8647]},"properties":{"name":"Kuummiit","alt":[],"pop":248,"region":"Sermersooq","cc":"GL","code":"PPL"}},{"type":"Feature","geometry":{"type":"Point","coordinates":[-56.0148,51.1834]},"properties":{"name":"Main Brook","alt":[],"pop":246,"region":"NL","cc":"CA","code":"PPL"}},{"type":"Feature","geometry":{"type":"Point","coordinates":[-37.1847,65.5754]},"properties":{"name":"Kulusuk","alt":[],"pop":241,"region":"Sermersooq","cc":"GL","code":"PPL"}},{"type":"Feature","geometry":{"type":"Point","coordinates":[-69.5985,59.3004]},"properties":{"name":"Aupaluk","alt":[],"pop":233,"region":"QC","cc":"CA","code":"PPL"}},{"type":"Feature","geometry":{"type":"Point","coordinates":[-51.3025,70.5016]},"properties":{"name":"Ikerasak","alt":[],"pop":233,"region":"Avannaata","cc":"GL","code":"PPL"}},{"type":"Feature","geometry":{"type":"Point","coordinates":[-51.6313,70.8112]},"properties":{"name":"Saattut","alt":[],"pop":226,"region":"05","cc":"GL","code":"PPL"}},{"type":"Feature","geometry":{"type":"Point","coordinates":[-36.3798,65.9073]},"properties":{"name":"Sermiligaaq","alt":[],"pop":209,"region":"Sermersooq","cc":"GL","code":"PPL"}},{"type":"Feature","geometry":{"type":"Point","coordinates":[-56.8054,51.1844]},"properties":{"name":"Forresters Point","alt":[],"pop":207,"region":"NL","cc":"CA","code":"PPL"}},{"type":"Feature","geometry":{"type":"Point","coordinates":[-55.5241,72.1551]},"properties":{"name":"Upernavik Kujalleq","alt":[],"pop":205,"region":"Avannaata","cc":"GL","code":"PPL"}},{"type":"Feature","geometry":{"type":"Point","coordinates":[-53.6236,67.941]},"properties":{"name":"Attu","alt":[],"pop":203,"region":"Qeqertalik","cc":"GL","code":"PPL"}},{"type":"Feature","geometry":{"type":"Point","coordinates":[-45.5695,60.4627]},"properties":{"name":"Alluitsup Paa","alt":[],"pop":202,"region":"Kujalleq","cc":"GL","code":"PPL"}},{"type":"Feature","geometry":{"type":"Point","coordinates":[-52.2167,64.8]},"properties":{"name":"Atammik","alt":[],"pop":196,"region":"Qeqqata","cc":"GL","code":"PPL"}},{"type":"Feature","geometry":{"type":"Point","coordinates":[-59.7726,54.9079]},"properties":{"name":"Postville","alt":[],"pop":188,"region":"NL","cc":"CA","code":"PPL"}},{"type":"Feature","geometry":{"type":"Point","coordinates":[-56.5818,51.3815]},"properties":{"name":"Green Island Cove","alt":[],"pop":185,"region":"NL","cc":"CA","code":"PPL"}},{"type":"Feature","geometry":{"type":"Point","coordinates":[-94.8306,74.6974]},"properties":{"name":"Resolute","alt":["Qausuittuq"],"pop":183,"region":"NU","cc":"CA","code":"PPLL"}},{"type":"Feature","geometry":{"type":"Point","coordinates":[-55.6846,52.3689]},"properties":{"name":"St. Lewis","alt":[],"pop":181,"region":"NL","cc":"CA","code":"PPL"}},{"type":"Feature","geometry":{"type":"Point","coordinates":[-57.0596,74.1112]},"properties":{"name":"Nuussuaq","alt":[],"pop":181,"region":"Avannaata","cc":"GL","code":"PPL"}},{"type":"Feature","geometry":{"type":"Point","coordinates":[-56.9314,51.0501]},"properties":{"name":"Bird Cove","alt":[],"pop":175,"region":"NL","cc":"CA","code":"PPL"}},{"type":"Feature","geometry":{"type":"Point","coordinates":[-52.65,70.7333]},"properties":{"name":"Qaarsut","alt":[],"pop":174,"region":"Avannaata","cc":"GL","code":"PPL"}},{"type":"Feature","geometry":{"type":"Point","coordinates":[-50.6777,63.0881]},"properties":{"name":"Qeqertarsuatsiaat","alt":[],"pop":169,"region":"Sermersooq","cc":"GL","code":"PPL"}},{"type":"Feature","geometry":{"type":"Point","coordinates":[-48.096,61.2324]},"properties":{"name":"Kangilinnguit","alt":[],"pop":164,"region":"Sermersooq","cc":"GL","code":"PPL"}},{"type":"Feature","geometry":{"type":"Point","coordinates":[-56.7969,51.1942]},"properties":{"name":"Black Duck Cove","alt":[],"pop":155,"region":"NL","cc":"CA","code":"PPL"}},{"type":"Feature","geometry":{"type":"Point","coordinates":[-51.8869,71.0496]},"properties":{"name":"Ukkusissat","alt":[],"pop":154,"region":"Avannaata","cc":"GL","code":"PPL"}},{"type":"Feature","geometry":{"type":"Point","coordinates":[-55.7313,51.5668]},"properties":{"name":"Raleigh","alt":[],"pop":150,"region":"NL","cc":"CA","code":"PPL"}},{"type":"Feature","geometry":{"type":"Point","coordinates":[-55.6,72.8833]},"properties":{"name":"Aappilattoq","alt":[],"pop":149,"region":"Avannaata","cc":"GL","code":"PPL"}},{"type":"Feature","geometry":{"type":"Point","coordinates":[-82.8947,76.4184]},"properties":{"name":"Grise Fiord","alt":["Aujuittuq"],"pop":144,"region":"NU","cc":"CA","code":"PPLL"}},{"type":"Feature","geometry":{"type":"Point","coordinates":[-56.4147,51.7334]},"properties":{"name":"Red Bay","alt":[],"pop":142,"region":"NL","cc":"CA","code":"PPL"}},{"type":"Feature","geometry":{"type":"Point","coordinates":[-56.528,51.3977]},"properties":{"name":"Green Island Brook","alt":[],"pop":135,"region":"NL","cc":"CA","code":"PPL"}},{"type":"Feature","geometry":{"type":"Point","coordinates":[-51.9453,70.0096]},"properties":{"name":"Saqqaq","alt":[],"pop":132,"region":"Avannaata","cc":"GL","code":"PPL"}},{"type":"Feature","geometry":{"type":"Point","coordinates":[-55.5483,72.3796]},"properties":{"name":"Kangersuatsiaq","alt":[],"pop":130,"region":"Avannaata","cc":"GL","code":"PPL"}},{"type":"Feature","geometry":{"type":"Point","coordinates":[-45.4254,61.1567]},"properties":{"name":"Narsarsuaq","alt":[],"pop":123,"region":"Kujalleq","cc":"GL","code":"PPL"}},{"type":"Feature","geometry":{"type":"Point","coordinates":[-56.7709,51.198]},"properties":{"name":"Pidgeon Cove-St. Barbe","alt":[],"pop":121,"region":"NL","cc":"CA","code":"PPL"}},{"type":"Feature","geometry":{"type":"Point","coordinates":[-55.8647,51.6001]},"properties":{"name":"Cook's Harbour","alt":[],"pop":118,"region":"NL","cc":"CA","code":"PPL"}},{"type":"Feature","geometry":{"type":"Point","coordinates":[-123.4571,63.2237]},"properties":{"name":"Wrigley","alt":[],"pop":117,"region":"NT","cc":"CA","code":"PPL"}},{"type":"Feature","geometry":{"type":"Point","coordinates":[-51.3025,69.9974]},"properties":{"name":"Qeqertaq","alt":[],"pop":114,"region":"05","cc":"GL","code":"PPL"}},{"type":"Feature","geometry":{"type":"Point","coordinates":[-56.6981,51.6001]},"properties":{"name":"West St. Modeste","alt":[],"pop":102,"region":"NL","cc":"CA","code":"PPL"}},{"type":"Feature","geometry":{"type":"Point","coordinates":[-56.9148,51.0668]},"properties":{"name":"Brig Bay","alt":[],"pop":101,"region":"NL","cc":"CA","code":"PPL"}},{"type":"Feature","geometry":{"type":"Point","coordinates":[-44.285,60.1503]},"properties":{"name":"Aappilattoq","alt":[],"pop":100,"region":"Kujalleq","cc":"GL","code":"PPL"}},{"type":"Feature","geometry":{"type":"Point","coordinates":[-53.2124,71.5356]},"properties":{"name":"Nuugaatsiaq","alt":[],"pop":99,"region":"Avannaata","cc":"GL","code":"PPL"}},{"type":"Feature","geometry":{"type":"Point","coordinates":[-53.4456,68.1402]},"properties":{"name":"Ikerasaarsuk","alt":[],"pop":98,"region":"05","cc":"GL","code":"PPL"}},{"type":"Feature","geometry":{"type":"Point","coordinates":[-53.5647,71.2417]},"properties":{"name":"Illorsuit","alt":[],"pop":97,"region":"Avannaata","cc":"GL","code":"PPL"}},{"type":"Feature","geometry":{"type":"Point","coordinates":[-37.7787,65.8887]},"properties":{"name":"Tiniteqilaaq","alt":[],"pop":96,"region":"Sermersooq","cc":"GL","code":"PPL"}},{"type":"Feature","geometry":{"type":"Point","coordinates":[-52.8599,66.8979]},"properties":{"name":"Sarfannguit","alt":[],"pop":96,"region":"Qeqqata","cc":"GL","code":"PPL"}},{"type":"Feature","geometry":{"type":"Point","coordinates":[-125.2467,71.9849]},"properties":{"name":"Sachs Harbour","alt":[],"pop":90,"region":"NT","cc":"CA","code":"PPLL"}},{"type":"Feature","geometry":{"type":"Point","coordinates":[-56.8816,51.0758]},"properties":{"name":"Plum Point","alt":[],"pop":90,"region":"NL","cc":"CA","code":"PPL"}},{"type":"Feature","geometry":{"type":"Point","coordinates":[-53.5,66.5833]},"properties":{"name":"Itilleq","alt":[],"pop":89,"region":"Qeqqata","cc":"GL","code":"PPL"}},{"type":"Feature","geometry":{"type":"Point","coordinates":[-51.8254,68.6342]},"properties":{"name":"Ikamiut","alt":[],"pop":86,"region":"Qeqertalik","cc":"GL","code":"PPL"}},{"type":"Feature","geometry":{"type":"Point","coordinates":[-51.1148,69.0811]},"properties":{"name":"Ilimanaq","alt":[],"pop":84,"region":"05","cc":"GL","code":"PPL"}},{"type":"Feature","geometry":{"type":"Point","coordinates":[-52.4,65.05]},"properties":{"name":"Napasoq","alt":[],"pop":80,"region":"Qeqqata","cc":"GL","code":"PPL"}},{"type":"Feature","geometry":{"type":"Point","coordinates":[-55.498,51.4334]},"properties":{"name":"Great Brehat","alt":[],"pop":78,"region":"NL","cc":"CA","code":"PPL"}},{"type":"Feature","geometry":{"type":"Point","coordinates":[-53.1716,68.1479]},"properties":{"name":"Iginniarfik","alt":[],"pop":76,"region":"Qeqertalik","cc":"GL","code":"PPL"}},{"type":"Feature","geometry":{"type":"Point","coordinates":[-48.4512,61.1746]},"properties":{"name":"Arsuk","alt":[],"pop":73,"region":"Sermersooq","cc":"GL","code":"PPL"}},{"type":"Feature","geometry":{"type":"Point","coordinates":[-44.6653,60.0049]},"properties":{"name":"Narsarmijit","alt":[],"pop":66,"region":"Kujalleq","cc":"GL","code":"PPL"}},{"type":"Feature","geometry":{"type":"Point","coordinates":[-52.3299,68.7442]},"properties":{"name":"Akunnaaq","alt":[],"pop":66,"region":"05","cc":"GL","code":"PPL"}},{"type":"Feature","geometry":{"type":"Point","coordinates":[-56.6981,51.6168]},"properties":{"name":"Pinware","alt":[],"pop":64,"region":"NL","cc":"CA","code":"PPL"}},{"type":"Feature","geometry":{"type":"Point","coordinates":[-38.9756,65.5485]},"properties":{"name":"Isortoq","alt":[],"pop":64,"region":"Sermersooq","cc":"GL","code":"PPL"}},{"type":"Feature","geometry":{"type":"Point","coordinates":[-65.1149,76.0197]},"properties":{"name":"Savissivik","alt":[],"pop":55,"region":"Avannaata","cc":"GL","code":"PPL"}},{"type":"Feature","geometry":{"type":"Point","coordinates":[-44.8172,60.194]},"properties":{"name":"Tasiusaq","alt":[],"pop":53,"region":"Kujalleq","cc":"GL","code":"PPL"}},{"type":"Feature","geometry":{"type":"Point","coordinates":[-50.2713,64.4352]},"properties":{"name":"Kapisillit","alt":[],"pop":52,"region":"Sermersooq","cc":"GL","code":"PPL"}},{"type":"Feature","geometry":{"type":"Point","coordinates":[-51.2833,71.1333]},"properties":{"name":"Maarmorilik","alt":[],"pop":50,"region":"Avannaata","cc":"GL","code":"PPL"}},{"type":"Feature","geometry":{"type":"Point","coordinates":[-53.122,68.8568]},"properties":{"name":"Kitsissuarsuit","alt":[],"pop":50,"region":"05","cc":"GL","code":"PPL"}},{"type":"Feature","geometry":{"type":"Point","coordinates":[-55.8167,73.15]},"properties":{"name":"Naajat","alt":[],"pop":49,"region":"Avannaata","cc":"GL","code":"PPL"}},{"type":"Feature","geometry":{"type":"Point","coordinates":[-45.91,60.6232]},"properties":{"name":"Eqalugaarsuit","alt":[],"pop":49,"region":"Kujalleq","cc":"GL","code":"PPL"}},{"type":"Feature","geometry":{"type":"Point","coordinates":[-55.829,51.0586]},"properties":{"name":"Croque","alt":[],"pop":45,"region":"NL","cc":"CA","code":"PPL"}},{"type":"Feature","geometry":{"type":"Point","coordinates":[-95.5992,56.0672]},"properties":{"name":"Ilford","alt":[],"pop":43,"region":"MB","cc":"CA","code":"PPL"}},{"type":"Feature","geometry":{"type":"Point","coordinates":[-70.6316,77.7853]},"properties":{"name":"Siorapaluk","alt":[],"pop":43,"region":"05","cc":"GL","code":"PPL"}},{"type":"Feature","geometry":{"type":"Point","coordinates":[-45.5145,61.1496]},"properties":{"name":"Qassiarsuk","alt":[],"pop":39,"region":"Kujalleq","cc":"GL","code":"PPL"}},{"type":"Feature","geometry":{"type":"Point","coordinates":[-117.4088,60.9393]},"properties":{"name":"Kakisa","alt":[],"pop":36,"region":"NT","cc":"CA","code":"PPL"}},{"type":"Feature","geometry":{"type":"Point","coordinates":[-53.6643,70.7894]},"properties":{"name":"Niaqornat","alt":[],"pop":35,"region":"05","cc":"GL","code":"PPL"}},{"type":"Feature","geometry":{"type":"Point","coordinates":[-45.3863,60.5967]},"properties":{"name":"Ammassivik","alt":[],"pop":32,"region":"Kujalleq","cc":"GL","code":"PPL"}},{"type":"Feature","geometry":{"type":"Point","coordinates":[-51.0067,69.3425]},"properties":{"name":"Oqaatsut","alt":[],"pop":29,"region":"05","cc":"GL","code":"PPL"}},{"type":"Feature","geometry":{"type":"Point","coordinates":[-66.6478,77.5097]},"properties":{"name":"Qeqertat","alt":[],"pop":23,"region":"Avannaata","cc":"GL","code":"PPL"}},{"type":"Feature","geometry":{"type":"Point","coordinates":[-46.0277,60.5376]},"properties":{"name":"Saarloq","alt":[],"pop":21,"region":"Kujalleq","cc":"GL","code":"PPL"}},{"type":"Feature","geometry":{"type":"Point","coordinates":[-45.4207,60.9877]},"properties":{"name":"Igaliku","alt":[],"pop":21,"region":"Kujalleq","cc":"GL","code":"PPL"}},{"type":"Feature","geometry":{"type":"Point","coordinates":[-47.1667,60.7833]},"properties":{"name":"Qassimiut","alt":[],"pop":20,"region":"Kujalleq","cc":"GL","code":"PPL"}},{"type":"Feature","geometry":{"type":"Point","coordinates":[-45.8833,60.75]},"properties":{"name":"Upernaviarsuk","alt":[],"pop":13,"region":"Kujalleq","cc":"GL","code":"PPL"}},{"type":"Feature","geometry":{"type":"Point","coordinates":[-45.3333,60.7]},"properties":{"name":"Qallimiut","alt":[],"pop":12,"region":"Kujalleq","cc":"GL","code":"PPL"}},{"type":"Feature","geometry":{"type":"Point","coordinates":[-48.1722,61.2069]},"properties":{"name":"Ivittuut","alt":[],"pop":11,"region":"Sermersooq","cc":"GL","code":"PPL"}},{"type":"Feature","geometry":{"type":"Point","coordinates":[-53.95,69.4833]},"properties":{"name":"Diskofjord","alt":[],"pop":11,"region":"Qeqertalik","cc":"GL","code":"PPL"}},{"type":"Feature","geometry":{"type":"Point","coordinates":[-22.3298,70.4588]},"properties":{"name":"Kap Hope","alt":[],"pop":9,"region":"Sermersooq","cc":"GL","code":"PPL"}},{"type":"Feature","geometry":{"type":"Point","coordinates":[-59.4378,52.6558]},"properties":{"name":"Crooks Lake Lodge","alt":[],"pop":8,"region":"NL","cc":"CA","code":"PPL"}},{"type":"Feature","geometry":{"type":"Point","coordinates":[-53.25,65.8333]},"properties":{"name":"Timerliit","alt":[],"pop":7,"region":"Qeqqata","cc":"GL","code":"PPL"}},{"type":"Feature","geometry":{"type":"Point","coordinates":[-50.3167,64.4667]},"properties":{"name":"Neriunaq","alt":[],"pop":7,"region":"Sermersooq","cc":"GL","code":"PPL"}},{"type":"Feature","geometry":{"type":"Point","coordinates":[-45.4833,60.4667]},"properties":{"name":"Akuliaruseq","alt":[],"pop":7,"region":"Kujalleq","cc":"GL","code":"PPL"}},{"type":"Feature","geometry":{"type":"Point","coordinates":[-45.4667,60.55]},"properties":{"name":"Lichtenau","alt":[],"pop":6,"region":"Kujalleq","cc":"GL","code":"PPL"}},{"type":"Feature","geometry":{"type":"Point","coordinates":[-51.5445,63.6978]},"properties":{"name":"Kangerluarsoruseq","alt":[],"pop":6,"region":"Sermersooq","cc":"GL","code":"PPL"}},{"type":"Feature","geometry":{"type":"Point","coordinates":[-57.2393,53.4174]},"properties":{"name":"Paradise River","alt":[],"pop":5,"region":"NL","cc":"CA","code":"PPL"}},{"type":"Feature","geometry":{"type":"Point","coordinates":[-47.4167,60.8167]},"properties":{"name":"Saqqamiut","alt":[],"pop":5,"region":"Kujalleq","cc":"GL","code":"PPL"}},{"type":"Feature","geometry":{"type":"Point","coordinates":[-43.1592,60.0559]},"properties":{"name":"Prins Christians Sund","alt":[],"pop":4,"region":"Kujalleq","cc":"GL","code":"PPL"}},{"type":"Feature","geometry":{"type":"Point","coordinates":[-46.25,61.0667]},"properties":{"name":"Illorsuit","alt":[],"pop":4,"region":"Kujalleq","cc":"GL","code":"PPL"}},{"type":"Feature","geometry":{"type":"Point","coordinates":[-51.1,64.5333]},"properties":{"name":"Qoornoq","alt":[],"pop":2,"region":"Sermersooq","cc":"GL","code":"PPL"}},{"type":"Feature","geometry":{"type":"Point","coordinates":[-45.3,60.9167]},"properties":{"name":"Iterlak","alt":[],"pop":2,"region":"Kujalleq","cc":"GL","code":"PPL"}},{"type":"Feature","geometry":{"type":"Point","coordinates":[-70.1892,77.4275]},"properties":{"name":"Qeqertarsuaq","alt":["Godhavn"],"pop":2,"region":"Avannaata","cc":"GL","code":"PPL"}},{"type":"Feature","geometry":{"type":"Point","coordinates":[-50.9,64.2667]},"properties":{"name":"Qooqqut","alt":[],"pop":1,"region":"Sermersooq","cc":"GL","code":"PPL"}},{"type":"Feature","geometry":{"type":"Point","coordinates":[-37.3,65.7167]},"properties":{"name":"Qernertuarssuit","alt":[],"pop":1,"region":"Sermersooq","cc":"GL","code":"PPL"}},{"type":"Feature","geometry":{"type":"Point","coordinates":[-75.7966,78.8852]},"properties":{"name":"Alexandra Fiord","alt":[],"pop":0,"region":"NU","cc":"CA","code":"PPLL"}},{"type":"Feature","geometry":{"type":"Point","coordinates":[-72.6483,64.0173]},"properties":{"name":"Amadjuak","alt":[],"pop":0,"region":"NU","cc":"CA","code":"PPLL"}},{"type":"Feature","geometry":{"type":"Point","coordinates":[-128.9812,69.7064]},"properties":{"name":"Anderson River","alt":[],"pop":0,"region":"NT","cc":"CA","code":"PPLL"}},{"type":"Feature","geometry":{"type":"Point","coordinates":[-129.821,66.7167]},"properties":{"name":"Andersons Landing","alt":[],"pop":0,"region":"NT","cc":"CA","code":"PPLL"}},{"type":"Feature","geometry":{"type":"Point","coordinates":[-68.4467,63.7228]},"properties":{"name":"Apex","alt":[],"pop":0,"region":"NU","cc":"CA","code":"PPL"}},{"type":"Feature","geometry":{"type":"Point","coordinates":[-74.6984,64.3674]},"properties":{"name":"Aquiatulavik Point","alt":[],"pop":0,"region":"NU","cc":"CA","code":"PPLL"}},{"type":"Feature","geometry":{"type":"Point","coordinates":[-96.6851,55.7674]},"properties":{"name":"Arnot","alt":[],"pop":0,"region":"MB","cc":"CA","code":"PPLL"}},{"type":"Feature","geometry":{"type":"Point","coordinates":[-66.082,52.7668]},"properties":{"name":"Ashuanipi","alt":[],"pop":0,"region":"NL","cc":"CA","code":"PPLL"}},{"type":"Feature","geometry":{"type":"Point","coordinates":[-66.6985,54.6002]},"properties":{"name":"Astray","alt":[],"pop":0,"region":"NL","cc":"CA","code":"PPLL"}},{"type":"Feature","geometry":{"type":"Point","coordinates":[-118.6861,61.3002]},"properties":{"name":"Axe Point","alt":[],"pop":0,"region":"NT","cc":"CA","code":"PPLL"}},{"type":"Feature","geometry":{"type":"Point","coordinates":[-108.102,66.861]},"properties":{"name":"Bathurst Inlet","alt":[],"pop":0,"region":"NU","cc":"CA","code":"PPLL"}},{"type":"Feature","geometry":{"type":"Point","coordinates":[-55.7812,53.4168]},"properties":{"name":"Batteau","alt":[],"pop":0,"region":"NL","cc":"CA","code":"PPL"}},{"type":"Feature","geometry":{"type":"Point","coordinates":[-55.5859,52.2741]},"properties":{"name":"Battle Harbour","alt":[],"pop":0,"region":"NL","cc":"CA","code":"PPL"}},{"type":"Feature","geometry":{"type":"Point","coordinates":[-112.0939,60.0239]},"properties":{"name":"Bell Rock","alt":[],"pop":0,"region":"NT","cc":"CA","code":"PPLL"}},{"type":"Feature","geometry":{"type":"Point","coordinates":[-120.9294,61.828]},"properties":{"name":"Berens Landing","alt":[],"pop":0,"region":"NT","cc":"CA","code":"PPLL"}},{"type":"Feature","geometry":{"type":"Point","coordinates":[-133.0712,66.4998]},"properties":{"name":"Bernard House","alt":[],"pop":0,"region":"NT","cc":"CA","code":"PPLL"}},{"type":"Feature","geometry":{"type":"Point","coordinates":[-56.148,51.5168]},"properties":{"name":"Big Brook","alt":[],"pop":0,"region":"NL","cc":"CA","code":"PPL"}},{"type":"Feature","geometry":{"type":"Point","coordinates":[-101.6718,57.88]},"properties":{"name":"Brochet","alt":[],"pop":0,"region":"MB","cc":"CA","code":"PPL"}},{"type":"Feature","geometry":{"type":"Point","coordinates":[-119.8029,61.3002]},"properties":{"name":"Brownings Landing","alt":[],"pop":0,"region":"NT","cc":"CA","code":"PPLL"}},{"type":"Feature","geometry":{"type":"Point","coordinates":[-115.0401,60.8809]},"properties":{"name":"Buffalo River","alt":[],"pop":0,"region":"NT","cc":"CA","code":"PPLL"}},{"type":"Feature","geometry":{"type":"Point","coordinates":[-113.2024,62.9837]},"properties":{"name":"Camlaren","alt":[],"pop":0,"region":"NT","cc":"CA","code":"PPLL"}},{"type":"Feature","geometry":{"type":"Point","coordinates":[-134.9194,69.2832]},"properties":{"name":"Camp Farewell","alt":[],"pop":0,"region":"NT","cc":"CA","code":"PPLL"}},{"type":"Feature","geometry":{"type":"Point","coordinates":[-127.1037,65.2334]},"properties":{"name":"Canol","alt":[],"pop":0,"region":"NT","cc":"CA","code":"PPLL"}},{"type":"Feature","geometry":{"type":"Point","coordinates":[-55.6395,52.2182]},"properties":{"name":"Cape Charles","alt":[],"pop":0,"region":"NL","cc":"CA","code":"PPLL"}},{"type":"Feature","geometry":{"type":"Point","coordinates":[-61.3583,66.6658]},"properties":{"name":"Cape Dyer","alt":[],"pop":0,"region":"NU","cc":"CA","code":"PPLL"}},{"type":"Feature","geometry":{"type":"Point","coordinates":[-55.898,51.6168]},"properties":{"name":"Cape Norman","alt":[],"pop":0,"region":"NL","cc":"CA","code":"PPLL"}},{"type":"Feature","geometry":{"type":"Point","coordinates":[-55.6313,51.6001]},"properties":{"name":"Cape Onion","alt":[],"pop":0,"region":"NL","cc":"CA","code":"PPL"}},{"type":"Feature","geometry":{"type":"Point","coordinates":[-124.6718,70.1505]},"properties":{"name":"Cape Parry","alt":[],"pop":0,"region":"NT","cc":"CA","code":"PPLL"}},{"type":"Feature","geometry":{"type":"Point","coordinates":[-78.4661,60.7339]},"properties":{"name":"Cape Smith","alt":[],"pop":0,"region":"NU","cc":"CA","code":"PPLL"}},{"type":"Feature","geometry":{"type":"Point","coordinates":[-55.5147,51.6001]},"properties":{"name":"Caplin Gulch","alt":[],"pop":0,"region":"NL","cc":"CA","code":"PPLL"}},{"type":"Feature","geometry":{"type":"Point","coordinates":[-66.4318,54.0335]},"properties":{"name":"Cavanagh","alt":[],"pop":0,"region":"NL","cc":"CA","code":"PPLL"}},{"type":"Feature","geometry":{"type":"Point","coordinates":[-79.3161,51.9669]},"properties":{"name":"Charlton Depot","alt":[],"pop":0,"region":"NU","cc":"CA","code":"PPLL"}},{"type":"Feature","geometry":{"type":"Point","coordinates":[-126.0875,67.0433]},"properties":{"name":"Colville Lake","alt":[],"pop":0,"region":"NT","cc":"CA","code":"PPL"}},{"type":"Feature","geometry":{"type":"Point","coordinates":[-80.9984,76.2086]},"properties":{"name":"Craig Harbour","alt":[],"pop":0,"region":"NU","cc":"CA","code":"PPLL"}},{"type":"Feature","geometry":{"type":"Point","coordinates":[-112.1272,60.0281]},"properties":{"name":"Cunningham Landing","alt":[],"pop":0,"region":"NT","cc":"CA","code":"PPLL"}},{"type":"Feature","geometry":{"type":"Point","coordinates":[-56.8814,51.4668]},"properties":{"name":"Davis House","alt":[],"pop":0,"region":"NL","cc":"CA","code":"PPLL"}},{"type":"Feature","geometry":{"type":"Point","coordinates":[-114.1692,60.9836]},"properties":{"name":"Dawson Landing","alt":[],"pop":0,"region":"NT","cc":"CA","code":"PPLL"}},{"type":"Feature","geometry":{"type":"Point","coordinates":[-114.3074,62.4116]},"properties":{"name":"Dettah","alt":[],"pop":0,"region":"NT","cc":"CA","code":"PPL"}},{"type":"Feature","geometry":{"type":"Point","coordinates":[-113.9025,63.1838]},"properties":{"name":"Discovery","alt":[],"pop":0,"region":"NT","cc":"CA","code":"PPLL"}},{"type":"Feature","geometry":{"type":"Point","coordinates":[-101.2018,56.5216]},"properties":{"name":"Drybrough","alt":[],"pop":0,"region":"MB","cc":"CA","code":"PPLL"}},{"type":"Feature","geometry":{"type":"Point","coordinates":[-65.982,52.6334]},"properties":{"name":"Drylake","alt":[],"pop":0,"region":"NL","cc":"CA","code":"PPLL"}},{"type":"Feature","geometry":{"type":"Point","coordinates":[-97.7334,59.4129]},"properties":{"name":"Duck Lake Post","alt":[],"pop":0,"region":"MB","cc":"CA","code":"PPLL"}},{"type":"Feature","geometry":{"type":"Point","coordinates":[-82.3679,74.5326]},"properties":{"name":"Dundas Harbour","alt":[],"pop":0,"region":"NU","cc":"CA","code":"PPLL"}},{"type":"Feature","geometry":{"type":"Point","coordinates":[-118.0408,66.0866]},"properties":{"name":"Echo Bay","alt":[],"pop":0,"region":"NT","cc":"CA","code":"PPLL"}},{"type":"Feature","geometry":{"type":"Point","coordinates":[-100.2203,56.7462]},"properties":{"name":"Eden Lake","alt":[],"pop":0,"region":"MB","cc":"CA","code":"PPLL"}},{"type":"Feature","geometry":{"type":"Point","coordinates":[-116.033,62.7788]},"properties":{"name":"Edzo","alt":[],"pop":0,"region":"NT","cc":"CA","code":"PPL"}},{"type":"Feature","geometry":{"type":"Point","coordinates":[-65.682,52.3001]},"properties":{"name":"Embar","alt":[],"pop":0,"region":"NL","cc":"CA","code":"PPLL"}},{"type":"Feature","geometry":{"type":"Point","coordinates":[-66.2153,53.0834]},"properties":{"name":"Emeril","alt":[],"pop":0,"region":"NL","cc":"CA","code":"PPLL"}},{"type":"Feature","geometry":{"type":"Point","coordinates":[-100.8842,61.1338]},"properties":{"name":"Ennadai","alt":[],"pop":0,"region":"NU","cc":"CA","code":"PPLL"}},{"type":"Feature","geometry":{"type":"Point","coordinates":[-116.136,60.5502]},"properties":{"name":"Enterprise","alt":[],"pop":0,"region":"NT","cc":"CA","code":"PPL"}},{"type":"Feature","geometry":{"type":"Point","coordinates":[-66.4153,53.8835]},"properties":{"name":"Esker","alt":[],"pop":0,"region":"NL","cc":"CA","code":"PPLL"}},{"type":"Feature","geometry":{"type":"Point","coordinates":[-66.4985,54.1835]},"properties":{"name":"Faden","alt":[],"pop":0,"region":"NL","cc":"CA","code":"PPLL"}},{"type":"Feature","geometry":{"type":"Point","coordinates":[-117.8885,71.6176]},"properties":{"name":"Fort Collinson","alt":[],"pop":0,"region":"NT","cc":"CA","code":"PPLL"}},{"type":"Feature","geometry":{"type":"Point","coordinates":[-113.1526,64.4727]},"properties":{"name":"Fort Enterprise","alt":[],"pop":0,"region":"NT","cc":"CA","code":"PPLL"}},{"type":"Feature","geometry":{"type":"Point","coordinates":[-101.3203,59.3957]},"properties":{"name":"Fort Hall","alt":[],"pop":0,"region":"MB","cc":"CA","code":"PPLL"}},{"type":"Feature","geometry":{"type":"Point","coordinates":[-86.6993,66.5342]},"properties":{"name":"Fort Hope","alt":[],"pop":0,"region":"NU","cc":"CA","code":"PPLL"}},{"type":"Feature","geometry":{"type":"Point","coordinates":[-87.6332,55.9835]},"properties":{"name":"Fort Severn","alt":[],"pop":0,"region":"ON","cc":"CA","code":"PPLL"}},{"type":"Feature","geometry":{"type":"Point","coordinates":[-55.7147,52.5501]},"properties":{"name":"Francis Harbour","alt":[],"pop":0,"region":"NL","cc":"CA","code":"PPL"}},{"type":"Feature","geometry":{"type":"Point","coordinates":[-55.7313,53.2168]},"properties":{"name":"Frenchmans Island","alt":[],"pop":0,"region":"NL","cc":"CA","code":"PPLL"}},{"type":"Feature","geometry":{"type":"Point","coordinates":[-55.7586,52.5713]},"properties":{"name":"Georges Cove","alt":[],"pop":0,"region":"NL","cc":"CA","code":"PPLL"}},{"type":"Feature","geometry":{"type":"Point","coordinates":[-66.7818,54.7502]},"properties":{"name":"Gilling","alt":[],"pop":0,"region":"NL","cc":"CA","code":"PPLL"}},{"type":"Feature","geometry":{"type":"Point","coordinates":[-55.6335,51.3055]},"properties":{"name":"Goose Cove","alt":[],"pop":0,"region":"NL","cc":"CA","code":"PPL"}},{"type":"Feature","geometry":{"type":"Point","coordinates":[-55.6283,51.3066]},"properties":{"name":"Goose Cove East","alt":[],"pop":0,"region":"NL","cc":"CA","code":"PPL"}},{"type":"Feature","geometry":{"type":"Point","coordinates":[-94.1448,58.6751]},"properties":{"name":"Goose Creek","alt":[],"pop":0,"region":"MB","cc":"CA","code":"PPLL"}},{"type":"Feature","geometry":{"type":"Point","coordinates":[-64.4984,53.4835]},"properties":{"name":"Harlands Landing","alt":[],"pop":0,"region":"NL","cc":"CA","code":"PPLL"}},{"type":"Feature","geometry":{"type":"Point","coordinates":[-55.8147,53.0501]},"properties":{"name":"Hawke Harbour","alt":[],"pop":0,"region":"NL","cc":"CA","code":"PPLL"}},{"type":"Feature","geometry":{"type":"Point","coordinates":[-71.3279,81.8188]},"properties":{"name":"Hazen Camp","alt":[],"pop":0,"region":"NU","cc":"CA","code":"PPLL"}},{"type":"Feature","geometry":{"type":"Point","coordinates":[-62.6314,58.2003]},"properties":{"name":"Hebron","alt":[],"pop":0,"region":"NL","cc":"CA","code":"PPL"}},{"type":"Feature","geometry":{"type":"Point","coordinates":[-101.2606,56.3649]},"properties":{"name":"Herriot","alt":[],"pop":0,"region":"MB","cc":"CA","code":"PPLL"}},{"type":"Feature","geometry":{"type":"Point","coordinates":[-100.3971,55.818]},"properties":{"name":"Highrock","alt":[],"pop":0,"region":"MB","cc":"CA","code":"PPL"}},{"type":"Feature","geometry":{"type":"Point","coordinates":[-101.3118,56.2166]},"properties":{"name":"Hone","alt":[],"pop":0,"region":"MB","cc":"CA","code":"PPLL"}},{"type":"Feature","geometry":{"type":"Point","coordinates":[-100.5612,56.803]},"properties":{"name":"Hughes Lake","alt":[],"pop":0,"region":"MB","cc":"CA","code":"PPLL"}},{"type":"Feature","geometry":{"type":"Point","coordinates":[-103.5048,78.7853]},"properties":{"name":"Isachsen","alt":[],"pop":0,"region":"NU","cc":"CA","code":"PPLL"}},{"type":"Feature","geometry":{"type":"Point","coordinates":[-94.3811,56.4472]},"properties":{"name":"Jacam","alt":[],"pop":0,"region":"MB","cc":"CA","code":"PPLL"}},{"type":"Feature","geometry":{"type":"Point","coordinates":[-120.6279,61.5238]},"properties":{"name":"Jean Marie River","alt":[],"pop":0,"region":"NT","cc":"CA","code":"PPLL"}},{"type":"Feature","geometry":{"type":"Point","coordinates":[-101.3054,56.0566]},"properties":{"name":"Jetait","alt":[],"pop":0,"region":"MB","cc":"CA","code":"PPLL"}},{"type":"Feature","geometry":{"type":"Point","coordinates":[-56.9481,51.4668]},"properties":{"name":"Job's Room","alt":[],"pop":0,"region":"NL","cc":"CA","code":"PPLL"}},{"type":"Feature","geometry":{"type":"Point","coordinates":[-123.2199,62.8335]},"properties":{"name":"Jones Landing","alt":[],"pop":0,"region":"NT","cc":"CA","code":"PPLL"}},{"type":"Feature","geometry":{"type":"Point","coordinates":[-99.5075,57.1155]},"properties":{"name":"Kakapawanis","alt":[],"pop":0,"region":"MB","cc":"CA","code":"PPLL"}},{"type":"Feature","geometry":{"type":"Point","coordinates":[-70.0263,60.0185]},"properties":{"name":"Kangirsuk","alt":[],"pop":0,"region":"QC","cc":"CA","code":"PPL"}},{"type":"Feature","geometry":{"type":"Point","coordinates":[-101.3224,58.1545]},"properties":{"name":"Kapuskaypachik","alt":[],"pop":0,"region":"MB","cc":"CA","code":"PPLL"}},{"type":"Feature","geometry":{"type":"Point","coordinates":[-66.8653,55.1669]},"properties":{"name":"Kawawachikamach","alt":[],"pop":0,"region":"QC","cc":"CA","code":"PPL"}},{"type":"Feature","geometry":{"type":"Point","coordinates":[-65.825,65.716]},"properties":{"name":"Kekerten","alt":[],"pop":0,"region":"NU","cc":"CA","code":"PPLL"}},{"type":"Feature","geometry":{"type":"Point","coordinates":[-96.5419,56.04]},"properties":{"name":"Kelsey","alt":[],"pop":0,"region":"MB","cc":"CA","code":"PPLL"}},{"type":"Feature","geometry":{"type":"Point","coordinates":[-66.9474,65.2006]},"properties":{"name":"Kipisa","alt":[],"pop":0,"region":"NU","cc":"CA","code":"PPLL"}},{"type":"Feature","geometry":{"type":"Point","coordinates":[-93.9673,58.1662]},"properties":{"name":"Kischiayamweekemow","alt":[],"pop":0,"region":"MB","cc":"CA","code":"PPLL"}},{"type":"Feature","geometry":{"type":"Point","coordinates":[-133.7,69.3403]},"properties":{"name":"Kittigazuit","alt":[],"pop":0,"region":"NT","cc":"CA","code":"PPLL"}},{"type":"Feature","geometry":{"type":"Point","coordinates":[-64.8846,67.9349]},"properties":{"name":"Kivitoo","alt":[],"pop":0,"region":"NU","cc":"CA","code":"PPLL"}},{"type":"Feature","geometry":{"type":"Point","coordinates":[-66.7818,54.7502]},"properties":{"name":"Knob Lake Junction","alt":[],"pop":0,"region":"NL","cc":"CA","code":"PPLL"}},{"type":"Feature","geometry":{"type":"Point","coordinates":[-100.8228,56.3302]},"properties":{"name":"Kosapachekaywinasinne","alt":[],"pop":0,"region":"MB","cc":"CA","code":"PPLL"}},{"type":"Feature","geometry":{"type":"Point","coordinates":[-101.7351,56.4008]},"properties":{"name":"Kosapechekanesik","alt":[],"pop":0,"region":"MB","cc":"CA","code":"PPLL"}},{"type":"Feature","geometry":{"type":"Point","coordinates":[-89.825,68.5341]},"properties":{"name":"Kugaaruk","alt":["Pelly Bay"],"pop":0,"region":"NU","cc":"CA","code":"PPLL"}},{"type":"Feature","geometry":{"type":"Point","coordinates":[-56.8648,51.4668]},"properties":{"name":"L'Anse-Amour","alt":[],"pop":0,"region":"NL","cc":"CA","code":"PPLL"}},{"type":"Feature","geometry":{"type":"Point","coordinates":[-57.0814,51.4168]},"properties":{"name":"L'Anse-au-Clair","alt":[],"pop":0,"region":"NL","cc":"CA","code":"PPL"}},{"type":"Feature","geometry":{"type":"Point","coordinates":[-97.9669,55.2265]},"properties":{"name":"La Pérouse","alt":[],"pop":0,"region":"MB","cc":"CA","code":"PPLL"}},{"type":"Feature","geometry":{"type":"Point","coordinates":[-100.0058,56.4629]},"properties":{"name":"Leaf Rapids","alt":[],"pop":0,"region":"MB","cc":"CA","code":"PPL"}},{"type":"Feature","geometry":{"type":"Point","coordinates":[-101.1632,58.457]},"properties":{"name":"Le Pensie","alt":[],"pop":0,"region":"MB","cc":"CA","code":"PPLL"}},{"type":"Feature","geometry":{"type":"Point","coordinates":[-124.4276,69.8512]},"properties":{"name":"Letty Harbour","alt":[],"pop":0,"region":"NT","cc":"CA","code":"PPLL"}},{"type":"Feature","geometry":{"type":"Point","coordinates":[-97.5427,55.381]},"properties":{"name":"Leven","alt":[],"pop":0,"region":"MB","cc":"CA","code":"PPLL"}},{"type":"Feature","geometry":{"type":"Point","coordinates":[-130.2544,67.2]},"properties":{"name":"Little Chicago","alt":[],"pop":0,"region":"NT","cc":"CA","code":"PPLL"}},{"type":"Feature","geometry":{"type":"Point","coordinates":[-66.4486,53.9335]},"properties":{"name":"Livingston","alt":[],"pop":0,"region":"NL","cc":"CA","code":"PPLL"}},{"type":"Feature","geometry":{"type":"Point","coordinates":[-94.3696,56.3889]},"properties":{"name":"Long Spruce","alt":[],"pop":0,"region":"MB","cc":"CA","code":"PPLL"}},{"type":"Feature","geometry":{"type":"Point","coordinates":[-101.0473,56.8519]},"properties":{"name":"Lynn Lake","alt":[],"pop":0,"region":"MB","cc":"CA","code":"PPL"}},{"type":"Feature","geometry":{"type":"Point","coordinates":[-101.0756,56.8252]},"properties":{"name":"Lynn Lake","alt":[],"pop":0,"region":"MB","cc":"CA","code":"PPL"}},{"type":"Feature","geometry":{"type":"Point","coordinates":[-94.0627,61.2811]},"properties":{"name":"Maguse River","alt":[],"pop":0,"region":"NU","cc":"CA","code":"PPLL"}},{"type":"Feature","geometry":{"type":"Point","coordinates":[-133.1045,66.7831]},"properties":{"name":"Martin House","alt":[],"pop":0,"region":"NT","cc":"CA","code":"PPLL"}},{"type":"Feature","geometry":{"type":"Point","coordinates":[-97.1886,55.5741]},"properties":{"name":"Matago","alt":[],"pop":0,"region":"MB","cc":"CA","code":"PPLL"}},{"type":"Feature","geometry":{"type":"Point","coordinates":[-66.5985,54.4669]},"properties":{"name":"Menihek","alt":[],"pop":0,"region":"NL","cc":"CA","code":"PPLL"}},{"type":"Feature","geometry":{"type":"Point","coordinates":[-96.0837,56.6669]},"properties":{"name":"Mistuhekasookun","alt":[],"pop":0,"region":"MB","cc":"CA","code":"PPLL"}},{"type":"Feature","geometry":{"type":"Point","coordinates":[-61.7481,57.5335]},"properties":{"name":"Moores Harbour","alt":[],"pop":0,"region":"NL","cc":"CA","code":"PPLL"}},{"type":"Feature","geometry":{"type":"Point","coordinates":[-119.3387,76.2422]},"properties":{"name":"Mould Bay","alt":[],"pop":0,"region":"NT","cc":"CA","code":"PPLL"}},{"type":"Feature","geometry":{"type":"Point","coordinates":[-123.3864,61.0335]},"properties":{"name":"Nahanni Butte","alt":[],"pop":0,"region":"NT","cc":"CA","code":"PPLA3"}},{"type":"Feature","geometry":{"type":"Point","coordinates":[-121.103,61.8335]},"properties":{"name":"Naylors Landing","alt":[],"pop":0,"region":"NT","cc":"CA","code":"PPLL"}},{"type":"Feature","geometry":{"type":"Point","coordinates":[-123.2698,60.9502]},"properties":{"name":"Netla","alt":[],"pop":0,"region":"NT","cc":"CA","code":"PPLL"}},{"type":"Feature","geometry":{"type":"Point","coordinates":[-97.081,58.2245]},"properties":{"name":"North Knife Lake","alt":[],"pop":0,"region":"MB","cc":"CA","code":"PPLL"}},{"type":"Feature","geometry":{"type":"Point","coordinates":[-94.6868,58.8829]},"properties":{"name":"North River","alt":[],"pop":0,"region":"MB","cc":"CA","code":"PPLL"}},{"type":"Feature","geometry":{"type":"Point","coordinates":[-99.3237,55.8688]},"properties":{"name":"Notigi","alt":[],"pop":0,"region":"MB","cc":"CA","code":"PPLL"}},{"type":"Feature","geometry":{"type":"Point","coordinates":[-77.9327,63.1173]},"properties":{"name":"Nottingham Island","alt":[],"pop":0,"region":"NU","cc":"CA","code":"PPLL"}},{"type":"Feature","geometry":{"type":"Point","coordinates":[-94.828,59.9245]},"properties":{"name":"Nunalla","alt":[],"pop":0,"region":"MB","cc":"CA","code":"PPLL"}},{"type":"Feature","geometry":{"type":"Point","coordinates":[-77.615,65.134]},"properties":{"name":"Nuwata","alt":[],"pop":0,"region":"NU","cc":"CA","code":"PPLL"}},{"type":"Feature","geometry":{"type":"Point","coordinates":[-98.2255,55.1076]},"properties":{"name":"Odhill","alt":[],"pop":0,"region":"MB","cc":"CA","code":"PPLL"}},{"type":"Feature","geometry":{"type":"Point","coordinates":[-114.1693,62.2672]},"properties":{"name":"Old Fort Providence","alt":[],"pop":0,"region":"NT","cc":"CA","code":"PPLL"}},{"type":"Feature","geometry":{"type":"Point","coordinates":[-115.836,62.6504]},"properties":{"name":"Old Fort Rae","alt":[],"pop":0,"region":"NT","cc":"CA","code":"PPLL"}},{"type":"Feature","geometry":{"type":"Point","coordinates":[-66.6112,53.0418]},"properties":{"name":"Opocopa","alt":[],"pop":0,"region":"NL","cc":"CA","code":"PPLL"}},{"type":"Feature","geometry":{"type":"Point","coordinates":[-65.882,52.5668]},"properties":{"name":"Oreway","alt":[],"pop":0,"region":"NL","cc":"CA","code":"PPLL"}},{"type":"Feature","geometry":{"type":"Point","coordinates":[-96.6672,61.9173]},"properties":{"name":"Padlei","alt":[],"pop":0,"region":"NU","cc":"CA","code":"PPLL"}},{"type":"Feature","geometry":{"type":"Point","coordinates":[-62.7302,67.034]},"properties":{"name":"Padloping Island","alt":[],"pop":0,"region":"NU","cc":"CA","code":"PPLL"}},{"type":"Feature","geometry":{"type":"Point","coordinates":[-98.0024,55.508]},"properties":{"name":"Paint Lake","alt":[],"pop":0,"region":"MB","cc":"CA","code":"PPLL"}},{"type":"Feature","geometry":{"type":"Point","coordinates":[-85.4154,55.0189]},"properties":{"name":"Peawanuck","alt":[],"pop":0,"region":"ON","cc":"CA","code":"PPL"}},{"type":"Feature","geometry":{"type":"Point","coordinates":[-102.5516,67.8009]},"properties":{"name":"Perry Island","alt":[],"pop":0,"region":"NU","cc":"CA","code":"PPLL"}},{"type":"Feature","geometry":{"type":"Point","coordinates":[-97.156,55.588]},"properties":{"name":"Pikwitonei","alt":[],"pop":0,"region":"MB","cc":"CA","code":"PPL"}},{"type":"Feature","geometry":{"type":"Point","coordinates":[-114.4489,60.8342]},"properties":{"name":"Pine Point","alt":[],"pop":0,"region":"NT","cc":"CA","code":"PPLL"}},{"type":"Feature","geometry":{"type":"Point","coordinates":[-65.7987,52.4501]},"properties":{"name":"Pitaga","alt":[],"pop":0,"region":"NL","cc":"CA","code":"PPLL"}},{"type":"Feature","geometry":{"type":"Point","coordinates":[-96.8823,75.396]},"properties":{"name":"Polaris","alt":[],"pop":0,"region":"NU","cc":"CA","code":"PPLL"}},{"type":"Feature","geometry":{"type":"Point","coordinates":[-64.8317,60.4252]},"properties":{"name":"Port Burwell","alt":[],"pop":0,"region":"NU","cc":"CA","code":"PPLL"}},{"type":"Feature","geometry":{"type":"Point","coordinates":[-92.5984,57.055]},"properties":{"name":"Port Nelson","alt":[],"pop":0,"region":"MB","cc":"CA","code":"PPLL"}},{"type":"Feature","geometry":{"type":"Point","coordinates":[-101.3165,55.7424]},"properties":{"name":"Pukatawagan","alt":[],"pop":0,"region":"MB","cc":"CA","code":"PPL"}},{"type":"Feature","geometry":{"type":"Point","coordinates":[-73.9505,61.817]},"properties":{"name":"Purtuniq","alt":[],"pop":0,"region":"QC","cc":"CA","code":"PPL"}},{"type":"Feature","geometry":{"type":"Point","coordinates":[-64.0294,67.5571]},"properties":{"name":"Qikiqtarjuaq","alt":[],"pop":0,"region":"NU","cc":"CA","code":"PPLL"}},{"type":"Feature","geometry":{"type":"Point","coordinates":[-116.0503,62.8293]},"properties":{"name":"Rae","alt":[],"pop":0,"region":"NT","cc":"CA","code":"PPL"}},{"type":"Feature","geometry":{"type":"Point","coordinates":[-116.0527,62.8004]},"properties":{"name":"Rae-Edzo","alt":[],"pop":0,"region":"NT","cc":"CA","code":"PPLL"}},{"type":"Feature","geometry":{"type":"Point","coordinates":[-117.353,64.112]},"properties":{"name":"Gamèti","alt":[],"pop":0,"region":"NT","cc":"CA","code":"PPLA3"}},{"type":"Feature","geometry":{"type":"Point","coordinates":[-101.1457,55.6205]},"properties":{"name":"Rafter","alt":[],"pop":0,"region":"MB","cc":"CA","code":"PPLL"}},{"type":"Feature","geometry":{"type":"Point","coordinates":[-112.6188,61.1156]},"properties":{"name":"Rat River","alt":[],"pop":0,"region":"NT","cc":"CA","code":"PPLL"}},{"type":"Feature","geometry":{"type":"Point","coordinates":[-113.8336,69.2068]},"properties":{"name":"Read Island","alt":[],"pop":0,"region":"NU","cc":"CA","code":"PPLL"}},{"type":"Feature","geometry":{"type":"Point","coordinates":[-66.6652,54.6502]},"properties":{"name":"Redore","alt":[],"pop":0,"region":"NL","cc":"CA","code":"PPLL"}},{"type":"Feature","geometry":{"type":"Point","coordinates":[-134.1317,68.6929]},"properties":{"name":"Reindeer Station","alt":[],"pop":0,"region":"NT","cc":"CA","code":"PPLL"}},{"type":"Feature","geometry":{"type":"Point","coordinates":[-109.1658,62.713]},"properties":{"name":"Fort Reliance","alt":[],"pop":0,"region":"NT","cc":"CA","code":"PPL"}},{"type":"Feature","geometry":{"type":"Point","coordinates":[-55.8813,52.5834]},"properties":{"name":"Rexons Cove","alt":[],"pop":0,"region":"NL","cc":"CA","code":"PPL"}},{"type":"Feature","geometry":{"type":"Point","coordinates":[-112.7423,61.3821]},"properties":{"name":"Rocher River","alt":[],"pop":0,"region":"NT","cc":"CA","code":"PPLL"}},{"type":"Feature","geometry":{"type":"Point","coordinates":[-66.1987,53.0501]},"properties":{"name":"Rose Bay Junction","alt":[],"pop":0,"region":"NL","cc":"CA","code":"PPLL"}},{"type":"Feature","geometry":{"type":"Point","coordinates":[-66.1987,52.9168]},"properties":{"name":"Ross Bay","alt":[],"pop":0,"region":"NL","cc":"CA","code":"PPLL"}},{"type":"Feature","geometry":{"type":"Point","coordinates":[-66.1987,53.0501]},"properties":{"name":"Ross Bay Junction","alt":[],"pop":0,"region":"NL","cc":"CA","code":"PPLL"}},{"type":"Feature","geometry":{"type":"Point","coordinates":[-97.2098,55.6544]},"properties":{"name":"Sakitaw","alt":[],"pop":0,"region":"MB","cc":"CA","code":"PPLL"}},{"type":"Feature","geometry":{"type":"Point","coordinates":[-55.7812,53.4668]},"properties":{"name":"Salmon Bight","alt":[],"pop":0,"region":"NL","cc":"CA","code":"PPLL"}},{"type":"Feature","geometry":{"type":"Point","coordinates":[-56.7648,51.2668]},"properties":{"name":"Salmon Rock","alt":[],"pop":0,"region":"NL","cc":"CA","code":"PPLL"}},{"type":"Feature","geometry":{"type":"Point","coordinates":[-112.2369,60.1086]},"properties":{"name":"Salt River","alt":[],"pop":0,"region":"NT","cc":"CA","code":"PPLL"}},{"type":"Feature","geometry":{"type":"Point","coordinates":[-55.798,52.5334]},"properties":{"name":"Sandy Hook","alt":[],"pop":0,"region":"NL","cc":"CA","code":"PPLL"}},{"type":"Feature","geometry":{"type":"Point","coordinates":[-66.3486,53.6169]},"properties":{"name":"Sawbill","alt":[],"pop":0,"region":"NL","cc":"CA","code":"PPLL"}},{"type":"Feature","geometry":{"type":"Point","coordinates":[-101.7246,57.637]},"properties":{"name":"Sawbill","alt":[],"pop":0,"region":"MB","cc":"CA","code":"PPLL"}},{"type":"Feature","geometry":{"type":"Point","coordinates":[-118.9033,65.7172]},"properties":{"name":"Sawmill Bay","alt":[],"pop":0,"region":"NT","cc":"CA","code":"PPLL"}},{"type":"Feature","geometry":{"type":"Point","coordinates":[-65.6987,52.1834]},"properties":{"name":"Seahorse","alt":[],"pop":0,"region":"NL","cc":"CA","code":"PPLL"}},{"type":"Feature","geometry":{"type":"Point","coordinates":[-55.6647,52.4501]},"properties":{"name":"Seal Bight","alt":[],"pop":0,"region":"NL","cc":"CA","code":"PPL"}},{"type":"Feature","geometry":{"type":"Point","coordinates":[-98.4967,55.0698]},"properties":{"name":"Setting Lake","alt":[],"pop":0,"region":"MB","cc":"CA","code":"PPLL"}},{"type":"Feature","geometry":{"type":"Point","coordinates":[-131.9379,67.3832]},"properties":{"name":"Seven Islands Crossing","alt":[],"pop":0,"region":"NT","cc":"CA","code":"PPLL"}},{"type":"Feature","geometry":{"type":"Point","coordinates":[-66.1986,53.3169]},"properties":{"name":"Shabo","alt":[],"pop":0,"region":"NL","cc":"CA","code":"PPLL"}},{"type":"Feature","geometry":{"type":"Point","coordinates":[-92.0865,55.8533]},"properties":{"name":"Shamattawa","alt":[],"pop":0,"region":"MB","cc":"CA","code":"PPL"}},{"type":"Feature","geometry":{"type":"Point","coordinates":[-101.0875,55.124]},"properties":{"name":"Sherridon","alt":[],"pop":0,"region":"MB","cc":"CA","code":"PPL"}},{"type":"Feature","geometry":{"type":"Point","coordinates":[-57.0314,51.0168]},"properties":{"name":"Shoal Cove","alt":[],"pop":0,"region":"NL","cc":"CA","code":"PPL"}},{"type":"Feature","geometry":{"type":"Point","coordinates":[-94.1688,57.1975]},"properties":{"name":"Silcox","alt":[],"pop":0,"region":"MB","cc":"CA","code":"PPL"}},{"type":"Feature","geometry":{"type":"Point","coordinates":[-98.9281,56.7795]},"properties":{"name":"South Indian Lake","alt":[],"pop":0,"region":"MB","cc":"CA","code":"PPL"}},{"type":"Feature","geometry":{"type":"Point","coordinates":[-96.352,58.2209]},"properties":{"name":"South Knife Lake","alt":[],"pop":0,"region":"MB","cc":"CA","code":"PPLL"}},{"type":"Feature","geometry":{"type":"Point","coordinates":[-55.698,52.4168]},"properties":{"name":"Spear Harbour","alt":[],"pop":0,"region":"NL","cc":"CA","code":"PPLL"}},{"type":"Feature","geometry":{"type":"Point","coordinates":[-96.0943,56.2456]},"properties":{"name":"Split Lake","alt":[],"pop":0,"region":"MB","cc":"CA","code":"PPL"}},{"type":"Feature","geometry":{"type":"Point","coordinates":[-95.8271,56.017]},"properties":{"name":"Split Lake","alt":[],"pop":0,"region":"MB","cc":"CA","code":"PPLL"}},{"type":"Feature","geometry":{"type":"Point","coordinates":[-55.8313,52.7334]},"properties":{"name":"Square Islands","alt":[],"pop":0,"region":"NL","cc":"CA","code":"PPLL"}},{"type":"Feature","geometry":{"type":"Point","coordinates":[-128.6886,69.8002]},"properties":{"name":"Stanton","alt":[],"pop":0,"region":"NT","cc":"CA","code":"PPLL"}},{"type":"Feature","geometry":{"type":"Point","coordinates":[-96.5768,55.8396]},"properties":{"name":"Stitt","alt":[],"pop":0,"region":"MB","cc":"CA","code":"PPLL"}},{"type":"Feature","geometry":{"type":"Point","coordinates":[-94.0724,56.5345]},"properties":{"name":"Sundance","alt":[],"pop":0,"region":"MB","cc":"CA","code":"PPLL"}},{"type":"Feature","geometry":{"type":"Point","coordinates":[-100.9601,55.4138]},"properties":{"name":"Takipy","alt":[],"pop":0,"region":"MB","cc":"CA","code":"PPLL"}},{"type":"Feature","geometry":{"type":"Point","coordinates":[-93.5211,69.5372]},"properties":{"name":"Taloyoak","alt":["Spence Bay"],"pop":0,"region":"NU","cc":"CA","code":"PPLL"}},{"type":"Feature","geometry":{"type":"Point","coordinates":[-76.8963,81.4021]},"properties":{"name":"Tanquary Camp","alt":[],"pop":0,"region":"NU","cc":"CA","code":"PPLL"}},{"type":"Feature","geometry":{"type":"Point","coordinates":[-93.1001,62.0673]},"properties":{"name":"Tavani","alt":[],"pop":0,"region":"NU","cc":"CA","code":"PPLL"}},{"type":"Feature","geometry":{"type":"Point","coordinates":[-97.6874,55.3183]},"properties":{"name":"Thicket Portage","alt":[],"pop":0,"region":"MB","cc":"CA","code":"PPL"}},{"type":"Feature","geometry":{"type":"Point","coordinates":[-92.4002,70.1512]},"properties":{"name":"Thom Bay","alt":[],"pop":0,"region":"NU","cc":"CA","code":"PPLL"}},{"type":"Feature","geometry":{"type":"Point","coordinates":[-110.6687,62.9171]},"properties":{"name":"Thompson Landing","alt":[],"pop":0,"region":"NT","cc":"CA","code":"PPLL"}},{"type":"Feature","geometry":{"type":"Point","coordinates":[-55.848,52.8334]},"properties":{"name":"Triangle","alt":[],"pop":0,"region":"NL","cc":"CA","code":"PPLL"}},{"type":"Feature","geometry":{"type":"Point","coordinates":[-121.2531,60.4334]},"properties":{"name":"Trout Lake","alt":[],"pop":0,"region":"NT","cc":"CA","code":"PPL"}},{"type":"Feature","geometry":{"type":"Point","coordinates":[-133.7437,67.4429]},"properties":{"name":"Tsiigehtchic","alt":[],"pop":0,"region":"NT","cc":"CA","code":"PPL"}},{"type":"Feature","geometry":{"type":"Point","coordinates":[-128.2036,61.9568]},"properties":{"name":"Tungsten","alt":[],"pop":0,"region":"NT","cc":"CA","code":"PPLL"}},{"type":"Feature","geometry":{"type":"Point","coordinates":[-90.8166,65.9342]},"properties":{"name":"Wager Bay","alt":[],"pop":0,"region":"NU","cc":"CA","code":"PPLL"}},{"type":"Feature","geometry":{"type":"Point","coordinates":[-98.6822,56.0577]},"properties":{"name":"Wapawsik","alt":[],"pop":0,"region":"MB","cc":"CA","code":"PPLL"}},{"type":"Feature","geometry":{"type":"Point","coordinates":[-94.0927,56.8181]},"properties":{"name":"Weir River","alt":[],"pop":0,"region":"MB","cc":"CA","code":"PPLL"}},{"type":"Feature","geometry":{"type":"Point","coordinates":[-114.1818,64.1899]},"properties":{"name":"Wekweètì","alt":[],"pop":0,"region":"NT","cc":"CA","code":"PPLL"}},{"type":"Feature","geometry":{"type":"Point","coordinates":[-92.5778,62.1714]},"properties":{"name":"Whale Cove","alt":["Tikirarjuaq"],"pop":0,"region":"NU","cc":"CA","code":"PPLL"}},{"type":"Feature","geometry":{"type":"Point","coordinates":[-77.7495,55.2503]},"properties":{"name":"Whapmagoostui","alt":[],"pop":0,"region":"QC","cc":"CA","code":"PPL"}},{"type":"Feature","geometry":{"type":"Point","coordinates":[-117.2757,63.1443]},"properties":{"name":"Whatì","alt":[],"pop":0,"region":"NT","cc":"CA","code":"PPLL"}},{"type":"Feature","geometry":{"type":"Point","coordinates":[-133.6223,69.3792]},"properties":{"name":"Whitefish Station","alt":[],"pop":0,"region":"NT","cc":"CA","code":"PPLL"}},{"type":"Feature","geometry":{"type":"Point","coordinates":[-56.9481,51.4834]},"properties":{"name":"White House","alt":[],"pop":0,"region":"NL","cc":"CA","code":"PPLL"}},{"type":"Feature","geometry":{"type":"Point","coordinates":[-95.0217,56.2259]},"properties":{"name":"Willbeach","alt":[],"pop":0,"region":"MB","cc":"CA","code":"PPLL"}},{"type":"Feature","geometry":{"type":"Point","coordinates":[-55.7747,52.5603]},"properties":{"name":"Williams Harbour","alt":[],"pop":0,"region":"NL","cc":"CA","code":"PPL"}},{"type":"Feature","geometry":{"type":"Point","coordinates":[-85.1997,55.2669]},"properties":{"name":"Winisk","alt":[],"pop":0,"region":"ON","cc":"CA","code":"PPLL"}},{"type":"Feature","geometry":{"type":"Point","coordinates":[-92.3059,57.002]},"properties":{"name":"York Factory","alt":[],"pop":0,"region":"MB","cc":"CA","code":"PPLL"}},{"type":"Feature","geometry":{"type":"Point","coordinates":[-61.8592,54.0466]},"properties":{"name":"The Golden Circle","alt":[],"pop":0,"region":"NL","cc":"CA","code":"PPL"}},{"type":"Feature","geometry":{"type":"Point","coordinates":[-56.8131,51.0181]},"properties":{"name":"Mount St. Margaret","alt":[],"pop":0,"region":"NL","cc":"CA","code":"PPLL"}},{"type":"Feature","geometry":{"type":"Point","coordinates":[-113.7625,61.9194]},"properties":{"name":"Inner Whaleback Rocks","alt":[],"pop":0,"region":"NT","cc":"CA","code":"PPLL"}},{"type":"Feature","geometry":{"type":"Point","coordinates":[-123.3632,65.209]},"properties":{"name":"Fort Franklin","alt":[],"pop":0,"region":"NT","cc":"CA","code":"PPLL"}},{"type":"Feature","geometry":{"type":"Point","coordinates":[-58.4299,54.1801]},"properties":{"name":"Rigolet","alt":["Tikigâkkik"],"pop":0,"region":"NL","cc":"CA","code":"PPL"}},{"type":"Feature","geometry":{"type":"Point","coordinates":[-96.0,60.0]},"properties":{"name":"Scarborough","alt":[],"pop":0,"region":"MB","cc":"CA","code":"PPL"}},{"type":"Feature","geometry":{"type":"Point","coordinates":[-98.4829,58.7141]},"properties":{"name":"Tadoule Lake","alt":[],"pop":0,"region":"MB","cc":"CA","code":"PPL"}},{"type":"Feature","geometry":{"type":"Point","coordinates":[-101.4901,58.6174]},"properties":{"name":"Lac Brochet","alt":[],"pop":0,"region":"MB","cc":"CA","code":"PPLL"}},{"type":"Feature","geometry":{"type":"Point","coordinates":[-55.4583,51.5813]},"properties":{"name":"Little Quirpon","alt":[],"pop":0,"region":"NL","cc":"CA","code":"PPL"}},{"type":"Feature","geometry":{"type":"Point","coordinates":[-57.0986,53.8205]},"properties":{"name":"North River","alt":[],"pop":0,"region":"NL","cc":"CA","code":"PPL"}},{"type":"Feature","geometry":{"type":"Point","coordinates":[-56.9927,53.7991]},"properties":{"name":"Indian Harbour","alt":[],"pop":0,"region":"NL","cc":"CA","code":"PPL"}},{"type":"Feature","geometry":{"type":"Point","coordinates":[-57.1851,54.4726]},"properties":{"name":"Indian Harbour","alt":[],"pop":0,"region":"NL","cc":"CA","code":"PPL"}},{"type":"Feature","geometry":{"type":"Point","coordinates":[-57.183,54.5499]},"properties":{"name":"Emily Harbour","alt":[],"pop":0,"region":"NL","cc":"CA","code":"PPL"}},{"type":"Feature","geometry":{"type":"Point","coordinates":[-62.3473,82.5017]},"properties":{"name":"Alert","alt":[],"pop":0,"region":"NU","cc":"CA","code":"PPL"}},{"type":"Feature","geometry":{"type":"Point","coordinates":[-56.8625,51.1285]},"properties":{"name":"Pond Cove","alt":[],"pop":0,"region":"NL","cc":"CA","code":"PPL"}},{"type":"Feature","geometry":{"type":"Point","coordinates":[-56.6106,51.3726]},"properties":{"name":"Pines Cove","alt":[],"pop":0,"region":"NL","cc":"CA","code":"PPL"}},{"type":"Feature","geometry":{"type":"Point","coordinates":[-55.4873,51.5814]},"properties":{"name":"Noddy Bay","alt":[],"pop":0,"region":"NL","cc":"CA","code":"PPLL"}},{"type":"Feature","geometry":{"type":"Point","coordinates":[-53.524,68.6234]},"properties":{"name":"Vester Ejland","alt":[],"pop":0,"region":"05","cc":"GL","code":"PPL"}},{"type":"Feature","geometry":{"type":"Point","coordinates":[-24.0,70.65]},"properties":{"name":"Vandreblokken","alt":[],"pop":0,"region":"Sermersooq","cc":"GL","code":"PPL"}},{"type":"Feature","geometry":{"type":"Point","coordinates":[-21.976,70.4147]},"properties":{"name":"Uunartoq","alt":[],"pop":0,"region":"Sermersooq","cc":"GL","code":"PPL"}},{"type":"Feature","geometry":{"type":"Point","coordinates":[-52.6,69.9]},"properties":{"name":"Uunartoq","alt":[],"pop":0,"region":"Qeqertalik","cc":"GL","code":"PPL"}},{"type":"Feature","geometry":{"type":"Point","coordinates":[-51.6833,70.5667]},"properties":{"name":"Uummannatsiaq","alt":[],"pop":0,"region":"Avannaata","cc":"GL","code":"PPL"}},{"type":"Feature","geometry":{"type":"Point","coordinates":[-50.7833,64.4833]},"properties":{"name":"Uummannaq","alt":[],"pop":0,"region":"Sermersooq","cc":"GL","code":"PPL"}},{"type":"Feature","geometry":{"type":"Point","coordinates":[-53.5833,66.85]},"properties":{"name":"Uummannaarsuk","alt":[],"pop":0,"region":"Qeqqata","cc":"GL","code":"PPL"}},{"type":"Feature","geometry":{"type":"Point","coordinates":[-51.4667,63.8]},"properties":{"name":"Utoqqarmiut","alt":[],"pop":0,"region":"Sermersooq","cc":"GL","code":"PPL"}},{"type":"Feature","geometry":{"type":"Point","coordinates":[-37.9833,65.9]},"properties":{"name":"Umiattuartivit","alt":[],"pop":0,"region":"Sermersooq","cc":"GL","code":"PPL"}},{"type":"Feature","geometry":{"type":"Point","coordinates":[-37.9167,65.75]},"properties":{"name":"Ukîverajik","alt":[],"pop":0,"region":"Sermersooq","cc":"GL","code":"PPL"}},{"type":"Feature","geometry":{"type":"Point","coordinates":[-52.4361,69.8622]},"properties":{"name":"Ujarasussuk","alt":[],"pop":0,"region":"Qeqertalik","cc":"GL","code":"PPL"}},{"type":"Feature","geometry":{"type":"Point","coordinates":[-49.3833,62.1167]},"properties":{"name":"Ujaraat","alt":[],"pop":0,"region":"Sermersooq","cc":"GL","code":"PPL"}},{"type":"Feature","geometry":{"type":"Point","coordinates":[-56.1796,73.0483]},"properties":{"name":"Tussaaq","alt":[],"pop":0,"region":"05","cc":"GL","code":"PPL"}},{"type":"Feature","geometry":{"type":"Point","coordinates":[-53.1833,68.1]},"properties":{"name":"Tununngasoq","alt":[],"pop":0,"region":"Qeqertalik","cc":"GL","code":"PPL"}},{"type":"Feature","geometry":{"type":"Point","coordinates":[-45.1667,60.1167]},"properties":{"name":"Tuapaat","alt":[],"pop":0,"region":"Kujalleq","cc":"GL","code":"PPL"}},{"type":"Feature","geometry":{"type":"Point","coordinates":[-52.2,64.8667]},"properties":{"name":"Toqqusaq","alt":[],"pop":0,"region":"Qeqqata","cc":"GL","code":"PPL"}},{"type":"Feature","geometry":{"type":"Point","coordinates":[-41.1167,63.3833]},"properties":{"name":"Tiniteqilaarmiit","alt":[],"pop":0,"region":"Sermersooq","cc":"GL","code":"PPL"}},{"type":"Feature","geometry":{"type":"Point","coordinates":[-42.2167,62.5333]},"properties":{"name":"Timmiarmiut","alt":[],"pop":0,"region":"Kujalleq","cc":"GL","code":"PPL"}},{"type":"Feature","geometry":{"type":"Point","coordinates":[-52.2167,70.0333]},"properties":{"name":"Tartunaq","alt":[],"pop":0,"region":"Avannaata","cc":"GL","code":"PPL"}},{"type":"Feature","geometry":{"type":"Point","coordinates":[-45.2833,60.9]},"properties":{"name":"Søndre Igaliku","alt":[],"pop":0,"region":"Kujalleq","cc":"GL","code":"PPL"}},{"type":"Feature","geometry":{"type":"Point","coordinates":[-41.4028,63.2195]},"properties":{"name":"Skjoldungen","alt":[],"pop":0,"region":"Sermersooq","cc":"GL","code":"PPL"}},{"type":"Feature","geometry":{"type":"Point","coordinates":[-52.45,69.4333]},"properties":{"name":"Skansen","alt":[],"pop":0,"region":"Qeqertalik","cc":"GL","code":"PPL"}},{"type":"Feature","geometry":{"type":"Point","coordinates":[-37.0333,65.8667]},"properties":{"name":"Simiutaq","alt":[],"pop":0,"region":"Sermersooq","cc":"GL","code":"PPL"}},{"type":"Feature","geometry":{"type":"Point","coordinates":[-52.1,70.5667]},"properties":{"name":"Sermiarsuit","alt":[],"pop":0,"region":"Avannaata","cc":"GL","code":"PPL"}},{"type":"Feature","geometry":{"type":"Point","coordinates":[-52.4667,66.8667]},"properties":{"name":"Saqqarliit","alt":[],"pop":0,"region":"Qeqqata","cc":"GL","code":"PPL"}},{"type":"Feature","geometry":{"type":"Point","coordinates":[-43.9322,59.9908]},"properties":{"name":"Sammisoq","alt":[],"pop":0,"region":"Kujalleq","cc":"GL","code":"PPL"}},{"type":"Feature","geometry":{"type":"Point","coordinates":[-51.3001,69.7615]},"properties":{"name":"Ritenbenk","alt":[],"pop":0,"region":"Avannaata","cc":"GL","code":"PPL"}},{"type":"Feature","geometry":{"type":"Point","coordinates":[-45.25,60.45]},"properties":{"name":"Qunnermiut","alt":[],"pop":0,"region":"Kujalleq","cc":"GL","code":"PPL"}},{"type":"Feature","geometry":{"type":"Point","coordinates":[-37.1167,65.9667]},"properties":{"name":"Qíngeq","alt":[],"pop":0,"region":"Sermersooq","cc":"GL","code":"PPL"}},{"type":"Feature","geometry":{"type":"Point","coordinates":[-53.25,68.4167]},"properties":{"name":"Qeqertarsuatsiaq","alt":[],"pop":0,"region":"Qeqertalik","cc":"GL","code":"PPL"}},{"type":"Feature","geometry":{"type":"Point","coordinates":[-38.0167,65.8333]},"properties":{"name":"Qeertartivatsiaq","alt":[],"pop":0,"region":"Sermersooq","cc":"GL","code":"PPL"}},{"type":"Feature","geometry":{"type":"Point","coordinates":[-45.2333,60.55]},"properties":{"name":"Portusooq","alt":[],"pop":0,"region":"Kujalleq","cc":"GL","code":"PPL"}},{"type":"Feature","geometry":{"type":"Point","coordinates":[-51.1193,69.2152]},"properties":{"name":"Pitorqeq","alt":[],"pop":0,"region":"Avannaata","cc":"GL","code":"PPL"}},{"type":"Feature","geometry":{"type":"Point","coordinates":[-37.6333,66.0833]},"properties":{"name":"Paarnakajiit","alt":[],"pop":0,"region":"Sermersooq","cc":"GL","code":"PPL"}},{"type":"Feature","geometry":{"type":"Point","coordinates":[-51.2667,69.9667]},"properties":{"name":"Nuugaaq","alt":[],"pop":0,"region":"Avannaata","cc":"GL","code":"PPL"}},{"type":"Feature","geometry":{"type":"Point","coordinates":[-51.0833,69.1167]},"properties":{"name":"Nordre Huse","alt":[],"pop":0,"region":"Avannaata","cc":"GL","code":"PPL"}},{"type":"Feature","geometry":{"type":"Point","coordinates":[-52.4167,68.6167]},"properties":{"name":"Nivaaq","alt":[],"pop":0,"region":"Qeqertalik","cc":"GL","code":"PPL"}},{"type":"Feature","geometry":{"type":"Point","coordinates":[-46.1333,61.0]},"properties":{"name":"Niaqornaq","alt":[],"pop":0,"region":"Kujalleq","cc":"GL","code":"PPL"}},{"type":"Feature","geometry":{"type":"Point","coordinates":[-49.1167,61.6167]},"properties":{"name":"Neria","alt":[],"pop":0,"region":"Sermersooq","cc":"GL","code":"PPL"}},{"type":"Feature","geometry":{"type":"Point","coordinates":[-53.3,65.8833]},"properties":{"name":"Narssarmiut","alt":[],"pop":0,"region":"Qeqqata","cc":"GL","code":"PPL"}},{"type":"Feature","geometry":{"type":"Point","coordinates":[-49.3667,62.1]},"properties":{"name":"Narsatsiaat","alt":[],"pop":0,"region":"Sermersooq","cc":"GL","code":"PPL"}},{"type":"Feature","geometry":{"type":"Point","coordinates":[-51.6338,64.0017]},"properties":{"name":"Narsaq","alt":[],"pop":0,"region":"Sermersooq","cc":"GL","code":"PPL"}},{"type":"Feature","geometry":{"type":"Point","coordinates":[-49.35,61.6167]},"properties":{"name":"Narsalik","alt":[],"pop":0,"region":"Sermersooq","cc":"GL","code":"PPL"}},{"type":"Feature","geometry":{"type":"Point","coordinates":[-21.5564,73.49]},"properties":{"name":"Myggbukta","alt":[],"pop":0,"region":"02","cc":"GL","code":"PPL"}},{"type":"Feature","geometry":{"type":"Point","coordinates":[-52.7833,69.3667]},"properties":{"name":"Marraat","alt":[],"pop":0,"region":"Qeqertalik","cc":"GL","code":"PPL"}},{"type":"Feature","geometry":{"type":"Point","coordinates":[-53.1333,68.6]},"properties":{"name":"Manermiut","alt":[],"pop":0,"region":"Qeqertalik","cc":"GL","code":"PPL"}},{"type":"Feature","geometry":{"type":"Point","coordinates":[-53.3167,69.0167]},"properties":{"name":"Kronprinsen Ejland","alt":[],"pop":0,"region":"Qeqertalik","cc":"GL","code":"PPL"}},{"type":"Feature","geometry":{"type":"Point","coordinates":[-56.7333,73.95]},"properties":{"name":"Kittorsaq","alt":[],"pop":0,"region":"Avannaata","cc":"GL","code":"PPL"}},{"type":"Feature","geometry":{"type":"Point","coordinates":[-53.7833,68.2833]},"properties":{"name":"Killiat","alt":[],"pop":0,"region":"Qeqertalik","cc":"GL","code":"PPL"}},{"type":"Feature","geometry":{"type":"Point","coordinates":[-49.3,62.1667]},"properties":{"name":"Kiinnarissoq","alt":[],"pop":0,"region":"Sermersooq","cc":"GL","code":"PPL"}},{"type":"Feature","geometry":{"type":"Point","coordinates":[-52.7667,69.3833]},"properties":{"name":"Killuusat","alt":[],"pop":0,"region":"Qeqertalik","cc":"GL","code":"PPL"}},{"type":"Feature","geometry":{"type":"Point","coordinates":[-49.4667,61.95]},"properties":{"name":"Kangilineq","alt":[],"pop":0,"region":"Sermersooq","cc":"GL","code":"PPL"}},{"type":"Feature","geometry":{"type":"Point","coordinates":[-44.7833,60.45]},"properties":{"name":"Kangikitsoq","alt":[],"pop":0,"region":"Kujalleq","cc":"GL","code":"PPL"}},{"type":"Feature","geometry":{"type":"Point","coordinates":[-45.65,60.5167]},"properties":{"name":"Kangikasîk","alt":[],"pop":0,"region":"Kujalleq","cc":"GL","code":"PPL"}},{"type":"Feature","geometry":{"type":"Point","coordinates":[-50.4,62.8167]},"properties":{"name":"Kangigdlermiut","alt":[],"pop":0,"region":"Sermersooq","cc":"GL","code":"PPL"}},{"type":"Feature","geometry":{"type":"Point","coordinates":[-52.5333,65.4167]},"properties":{"name":"Kangerluarsuk","alt":[],"pop":0,"region":"Qeqqata","cc":"GL","code":"PPL"}},{"type":"Feature","geometry":{"type":"Point","coordinates":[-52.05,64.1167]},"properties":{"name":"Kangeq","alt":[],"pop":0,"region":"Sermersooq","cc":"GL","code":"PPL"}},{"type":"Feature","geometry":{"type":"Point","coordinates":[-55.6,72.0]},"properties":{"name":"Kangaarsuk","alt":[],"pop":0,"region":"Avannaata","cc":"GL","code":"PPL"}},{"type":"Feature","geometry":{"type":"Point","coordinates":[-37.5833,65.5833]},"properties":{"name":"Ittumiit","alt":[],"pop":0,"region":"Sermersooq","cc":"GL","code":"PPL"}},{"type":"Feature","geometry":{"type":"Point","coordinates":[-22.45,70.45]},"properties":{"name":"Ittorisseq","alt":[],"pop":0,"region":"Sermersooq","cc":"GL","code":"PPL"}},{"type":"Feature","geometry":{"type":"Point","coordinates":[-43.7333,59.8833]},"properties":{"name":"Itilleq","alt":[],"pop":0,"region":"Kujalleq","cc":"GL","code":"PPL"}},{"type":"Feature","geometry":{"type":"Point","coordinates":[-53.5,68.45]},"properties":{"name":"Innalik","alt":[],"pop":0,"region":"Qeqertalik","cc":"GL","code":"PPL"}},{"type":"Feature","geometry":{"type":"Point","coordinates":[-56.7,74.35]},"properties":{"name":"Illulik","alt":[],"pop":0,"region":"Avannaata","cc":"GL","code":"PPL"}},{"type":"Feature","geometry":{"type":"Point","coordinates":[-45.3333,60.45]},"properties":{"name":"Illorpaat","alt":[],"pop":0,"region":"Kujalleq","cc":"GL","code":"PPL"}},{"type":"Feature","geometry":{"type":"Point","coordinates":[-51.4333,69.9833]},"properties":{"name":"Ikorfat","alt":[],"pop":0,"region":"Avannaata","cc":"GL","code":"PPL"}},{"type":"Feature","geometry":{"type":"Point","coordinates":[-52.8,65.6333]},"properties":{"name":"Ikkamiut","alt":[],"pop":0,"region":"Qeqqata","cc":"GL","code":"PPL"}},{"type":"Feature","geometry":{"type":"Point","coordinates":[-53.4333,66.8667]},"properties":{"name":"Ikerasak","alt":[],"pop":0,"region":"Qeqqata","cc":"GL","code":"PPL"}},{"type":"Feature","geometry":{"type":"Point","coordinates":[-52.2833,65.1833]},"properties":{"name":"Ikerasak","alt":[],"pop":0,"region":"Qeqqata","cc":"GL","code":"PPL"}},{"type":"Feature","geometry":{"type":"Point","coordinates":[-56.4523,73.5262]},"properties":{"name":"Ikerasaarsuk","alt":[],"pop":0,"region":"Avannaata","cc":"GL","code":"PPL"}},{"type":"Feature","geometry":{"type":"Point","coordinates":[-53.1,66.8167]},"properties":{"name":"Ikerasaarsuk","alt":[],"pop":0,"region":"Qeqqata","cc":"GL","code":"PPL"}},{"type":"Feature","geometry":{"type":"Point","coordinates":[-36.6676,65.9465]},"properties":{"name":"Íkáteq","alt":[],"pop":0,"region":"Sermersooq","cc":"GL","code":"PPL"}},{"type":"Feature","geometry":{"type":"Point","coordinates":[-39.0167,65.5167]},"properties":{"name":"Igssalik","alt":[],"pop":0,"region":"Sermersooq","cc":"GL","code":"PPL"}},{"type":"Feature","geometry":{"type":"Point","coordinates":[-44.7,59.9833]},"properties":{"name":"Ikigaat","alt":[],"pop":0,"region":"Kujalleq","cc":"GL","code":"PPL"}},{"type":"Feature","geometry":{"type":"Point","coordinates":[-52.95,70.0333]},"properties":{"name":"Qullissaaqqat","alt":[],"pop":0,"region":"Qeqertalik","cc":"GL","code":"PPL"}},{"type":"Feature","geometry":{"type":"Point","coordinates":[-53.5833,67.65]},"properties":{"name":"Gamle Egedesminde","alt":[],"pop":0,"region":"Qeqertalik","cc":"GL","code":"PPL"}},{"type":"Feature","geometry":{"type":"Point","coordinates":[-41.3,63.3833]},"properties":{"name":"Finnsbu","alt":[],"pop":0,"region":"Sermersooq","cc":"GL","code":"PPL"}},{"type":"Feature","geometry":{"type":"Point","coordinates":[-51.0833,69.1333]},"properties":{"name":"Eqi","alt":[],"pop":0,"region":"Avannaata","cc":"GL","code":"PPL"}},{"type":"Feature","geometry":{"type":"Point","coordinates":[-50.9292,66.9727]},"properties":{"name":"Camp Lloyd","alt":[],"pop":0,"region":"Qeqqata","cc":"GL","code":"PPL"}},{"type":"Feature","geometry":{"type":"Point","coordinates":[-54.5833,70.7]},"properties":{"name":"Aallaaniarfinnguaq","alt":[],"pop":0,"region":"Avannaata","cc":"GL","code":"PPL"}},{"type":"Feature","geometry":{"type":"Point","coordinates":[-50.95,69.7667]},"properties":{"name":"Ataa","alt":[],"pop":0,"region":"Avannaata","cc":"GL","code":"PPL"}},{"type":"Feature","geometry":{"type":"Point","coordinates":[-53.4667,66.9167]},"properties":{"name":"Assaqutaq","alt":[],"pop":0,"region":"Qeqqata","cc":"GL","code":"PPL"}},{"type":"Feature","geometry":{"type":"Point","coordinates":[-50.7,69.85]},"properties":{"name":"Arsivik","alt":[],"pop":0,"region":"Avannaata","cc":"GL","code":"PPL"}},{"type":"Feature","geometry":{"type":"Point","coordinates":[-53.6,67.8667]},"properties":{"name":"Aqisserniaq","alt":[],"pop":0,"region":"Qeqertalik","cc":"GL","code":"PPL"}},{"type":"Feature","geometry":{"type":"Point","coordinates":[-32.2833,67.7833]},"properties":{"name":"Aputiteeq","alt":[],"pop":0,"region":"Sermersooq","cc":"GL","code":"PPL"}},{"type":"Feature","geometry":{"type":"Point","coordinates":[-52.1667,70.9167]},"properties":{"name":"Appat","alt":[],"pop":0,"region":"Avannaata","cc":"GL","code":"PPL"}},{"type":"Feature","geometry":{"type":"Point","coordinates":[-53.1833,65.6667]},"properties":{"name":"Appamiut","alt":[],"pop":0,"region":"Qeqqata","cc":"GL","code":"PPL"}},{"type":"Feature","geometry":{"type":"Point","coordinates":[-44.2167,60.0833]},"properties":{"name":"Anorliuitsoq","alt":[],"pop":0,"region":"Kujalleq","cc":"GL","code":"PPL"}},{"type":"Feature","geometry":{"type":"Point","coordinates":[-51.25,68.6667]},"properties":{"name":"Akulliit","alt":[],"pop":0,"region":"Qeqertalik","cc":"GL","code":"PPL"}},{"type":"Feature","geometry":{"type":"Point","coordinates":[-53.3333,68.3833]},"properties":{"name":"Akulliit","alt":[],"pop":0,"region":"Qeqertalik","cc":"GL","code":"PPL"}},{"type":"Feature","geometry":{"type":"Point","coordinates":[-49.3333,62.2]},"properties":{"name":"Aasivik","alt":[],"pop":0,"region":"Sermersooq","cc":"GL","code":"PPL"}},{"type":"Feature","geometry":{"type":"Point","coordinates":[-44.5,60.1667]},"properties":{"name":"Aappilattorq","alt":[],"pop":0,"region":"Kujalleq","cc":"GL","code":"PPL"}},{"type":"Feature","geometry":{"type":"Point","coordinates":[-52.8333,68.1667]},"properties":{"name":"Aalatsivik","alt":[],"pop":0,"region":"Qeqertalik","cc":"GL","code":"PPL"}},{"type":"Feature","geometry":{"type":"Point","coordinates":[-21.9466,70.4114]},"properties":{"name":"Kap Tobin","alt":[],"pop":0,"region":"Sermersooq","cc":"GL","code":"PPL"}},{"type":"Feature","geometry":{"type":"Point","coordinates":[-71.8333,77.3167]},"properties":{"name":"Upernavissuaq","alt":[],"pop":0,"region":"Avannaata","cc":"GL","code":"PPL"}},{"type":"Feature","geometry":{"type":"Point","coordinates":[-71.0667,77.3833]},"properties":{"name":"Ulussat","alt":[],"pop":0,"region":"Avannaata","cc":"GL","code":"PPL"}},{"type":"Feature","geometry":{"type":"Point","coordinates":[-68.4642,77.3614]},"properties":{"name":"Tikeraasaq","alt":[],"pop":0,"region":"Avannaata","cc":"GL","code":"PPL"}},{"type":"Feature","geometry":{"type":"Point","coordinates":[-67.7672,77.5325]},"properties":{"name":"Quínissut","alt":[],"pop":0,"region":"Avannaata","cc":"GL","code":"PPL"}},{"type":"Feature","geometry":{"type":"Point","coordinates":[-65.9864,76.0344]},"properties":{"name":"Qeqertaq","alt":[],"pop":0,"region":"Avannaata","cc":"GL","code":"PPL"}},{"type":"Feature","geometry":{"type":"Point","coordinates":[-71.5333,77.3333]},"properties":{"name":"Qassisalik","alt":[],"pop":0,"region":"Avannaata","cc":"GL","code":"PPL"}},{"type":"Feature","geometry":{"type":"Point","coordinates":[-72.4667,77.3833]},"properties":{"name":"Qangattaat","alt":[],"pop":0,"region":"Avannaata","cc":"GL","code":"PPL"}},{"type":"Feature","geometry":{"type":"Point","coordinates":[-66.4489,75.9272]},"properties":{"name":"Perlernerit","alt":[],"pop":0,"region":"Avannaata","cc":"GL","code":"PPL"}},{"type":"Feature","geometry":{"type":"Point","coordinates":[-66.5747,77.4239]},"properties":{"name":"Nunatarsuaq","alt":[],"pop":0,"region":"Avannaata","cc":"GL","code":"PPL"}},{"type":"Feature","geometry":{"type":"Point","coordinates":[-66.0,80.0]},"properties":{"name":"Nunatami","alt":[],"pop":0,"region":"Avannaata","cc":"GL","code":"PPL"}},{"type":"Feature","geometry":{"type":"Point","coordinates":[-67.5297,77.3894]},"properties":{"name":"Nunat","alt":[],"pop":0,"region":"Avannaata","cc":"GL","code":"PPL"}},{"type":"Feature","geometry":{"type":"Point","coordinates":[-70.7375,77.175]},"properties":{"name":"Natsilivik","alt":[],"pop":0,"region":"Avannaata","cc":"GL","code":"PPL"}},{"type":"Feature","geometry":{"type":"Point","coordinates":[-68.8654,77.296]},"properties":{"name":"Narsaq","alt":[],"pop":0,"region":"05","cc":"GL","code":"PPL"}},{"type":"Feature","geometry":{"type":"Point","coordinates":[-71.4667,77.35]},"properties":{"name":"Kiatak","alt":[],"pop":0,"region":"Avannaata","cc":"GL","code":"PPL"}},{"type":"Feature","geometry":{"type":"Point","coordinates":[-69.4892,77.2244]},"properties":{"name":"Itilleq","alt":[],"pop":0,"region":"Avannaata","cc":"GL","code":"PPL"}},{"type":"Feature","geometry":{"type":"Point","coordinates":[-68.7836,76.5625]},"properties":{"name":"Dundas","alt":[],"pop":0,"region":"05","cc":"GL","code":"PPL"}},{"type":"Feature","geometry":{"type":"Point","coordinates":[-72.6667,77.4167]},"properties":{"name":"Appaarsuit","alt":[],"pop":0,"region":"Avannaata","cc":"GL","code":"PPL"}},{"type":"Feature","geometry":{"type":"Point","coordinates":[-38.453,72.5793]},"properties":{"name":"Summit Camp","alt":[],"pop":0,"region":"02","cc":"GL","code":"PPL"}},{"type":"Feature","geometry":{"type":"Point","coordinates":[-56.0125,73.1991]},"properties":{"name":"Innarsuit Settlement","alt":[],"pop":0,"region":"Avannaata","cc":"GL","code":"PPLL"}},{"type":"Feature","geometry":{"type":"Point","coordinates":[-56.4264,73.519]},"properties":{"name":"Nutaarmiut","alt":[],"pop":0,"region":"","cc":"GL","code":"PPL"}}]}