{
"type": "FeatureCollection",
"name": "ne_10m_minor_islands",
"features": [
{ "type": "Feature", "properties": { "featurecla": "Minor island", "min_zoom": 6.5, "scalerank": 7 }, "geometry": { "type": "Polygon", "coordinates": [ [ [ -60.139, 47.216 ], [ -60.146, 47.223 ], [ -60.167, 47.2 ], [ -60.167, 47.186 ], [ -60.144, 47.196 ], [ -60.139, 47.216 ] ] ] } },
{ "type": "Feature", "properties": { "featurecla": "Minor island", "min_zoom": 6.5, "scalerank": 7 }, "geometry": { "type": "Polygon", "coordinates": [ [ [ -61.483, 47.777 ], [ -61.424, 47.797 ], [ -61.458, 47.803 ], [ -61.51, 47.784 ], [ -61.483, 47.777 ] ] ] } },
{ "type": "Feature", "properties": { "featurecla": "Minor island", "min_zoom": 7.0, "scalerank": 8 }, "geometry": { "type": "Polygon", "coordinates": [ [ [ -123.239, 48.43 ], [ -123.248, 48.429 ], [ -123.243, 48.42 ], [ -123.227, 48.426 ], [ -123.239, 48.43 ] ] ] } },
{ "type": "Feature", "properties": { "featurecla": "Minor island", "min_zoom": 6.5, "scalerank": 7 }, "geometry": { "type": "Polygon", "coordinates": [ [ [ -122.791, 48.507 ], [ -122.791, 48.524 ], [ -122.823, 48.525 ], [ -122.839, 48.511 ], [ -122.822, 48.5 ], [ -122.82, 48.481 ], [ -122.791, 48.507 ] ] ] } },
{ "type": "Feature", "properties": { "featurecla": "Minor island", "min_zoom": 6.5, "scalerank": 7 }, "geometry": { "type": "Polygon", "coordinates": [ [ [ -122.579, 48.532 ], [ -122.582, 48.549 ], [ -122.642, 48.586 ], [ -122.653, 48.58 ], [ -122.655, 48.543 ], [ -122.644, 48.53 ], [ -122.579, 48.532 ] ] ] } },
{ "type": "Feature", "properties": { "featurecla": "Minor island", "min_zoom": 6.5, "scalerank": 7 }, "geometry": { "type": "Polygon", "coordinates": [ [ [ -122.914, 48.585 ], [ -122.929, 48.584 ], [ -122.937, 48.576 ], [ -122.941, 48.587 ], [ -122.97, 48.595 ], [ -123.016, 48.582 ], [ -122.995, 48.576 ], [ -122.984, 48.565 ], [ -122.985, 48.555 ], [ -122.952, 48.548 ], [ -122.94, 48.563 ], [ -122.916, 48.568 ], [ -122.914, 48.585 ] ] ] } },
{ "type": "Feature", "properties": { "featurecla": "Minor island", "min_zoom": 7.0, "scalerank": 8 }, "geometry": { "type": "Polygon", "coordinates": [ [ [ -123.338, 48.594 ], [ -123.347, 48.606 ], [ -123.376, 48.618 ], [ -123.355, 48.602 ], [ -123.351, 48.588 ], [ -123.338, 48.594 ] ] ] } },
{ "type": "Feature", "properties": { "featurecla": "Minor island", "min_zoom": 7.0, "scalerank": 8 }, "geometry": { "type": "Polygon", "coordinates": [ [ [ -122.664, 48.608 ], [ -122.674, 48.627 ], [ -122.7, 48.623 ], [ -122.664, 48.608 ] ] ] } },
{ "type": "Feature", "properties": { "featurecla": "Minor island", "min_zoom": 7.0, "scalerank": 8 }, "geometry": { "type": "Polygon", "coordinates": [ [ [ -123.108, 48.634 ], [ -123.163, 48.65 ], [ -123.141, 48.638 ], [ -123.108, 48.634 ] ] ] } },
{ "type": "Feature", "properties": { "featurecla": "Minor island", "min_zoom": 6.5, "scalerank": 7 }, "geometry": { "type": "Polygon", "coordinates": [ [ [ -123.172, 48.669 ], [ -123.171, 48.677 ], [ -123.194, 48.676 ], [ -123.215, 48.689 ], [ -123.239, 48.687 ], [ -123.19, 48.66 ], [ -123.187, 48.668 ], [ -123.198, 48.673 ], [ -123.172, 48.669 ] ] ] } },
{ "type": "Feature", "properties": { "featurecla": "Minor island", "min_zoom": 7.0, "scalerank": 8 }, "geometry": { "type": "Polygon", "coordinates": [ [ [ -122.645, 48.705 ], [ -122.621, 48.692 ], [ -122.612, 48.696 ], [ -122.615, 48.716 ], [ -122.622, 48.72 ], [ -122.621, 48.708 ], [ -122.654, 48.71 ], [ -122.645, 48.705 ] ] ] } },
{ "type": "Feature", "properties": { "featurecla": "Minor island", "min_zoom": 6.5, "scalerank": 7 }, "geometry": { "type": "Polygon", "coordinates": [ [ [ -123.013, 48.688 ], [ -123.015, 48.722 ], [ -123.041, 48.717 ], [ -123.066, 48.7 ], [ -123.043, 48.693 ], [ -123.037, 48.677 ], [ -123.013, 48.688 ] ] ] } },
{ "type": "Feature", "properties": { "featurecla": "Minor island", "min_zoom": 7.0, "scalerank": 8 }, "geometry": { "type": "Polygon", "coordinates": [ [ [ -123.3, 48.699 ], [ -123.294, 48.716 ], [ -123.311, 48.731 ], [ -123.328, 48.732 ], [ -123.334, 48.719 ], [ -123.3, 48.699 ] ] ] } },
{ "type": "Feature", "properties": { "featurecla": "Minor island", "min_zoom": 7.0, "scalerank": 8 }, "geometry": { "type": "Polygon", "coordinates": [ [ [ -123.388, 48.725 ], [ -123.375, 48.714 ], [ -123.362, 48.727 ], [ -123.378, 48.736 ], [ -123.388, 48.725 ] ] ] } },
{ "type": "Feature", "properties": { "featurecla": "Minor island", "min_zoom": 7.0, "scalerank": 8 }, "geometry": { "type": "Polygon", "coordinates": [ [ [ -122.912, 48.761 ], [ -122.883, 48.763 ], [ -122.907, 48.771 ], [ -122.922, 48.761 ], [ -122.913, 48.75 ], [ -122.887, 48.747 ], [ -122.912, 48.761 ] ] ] } },
{ "type": "Feature", "properties": { "featurecla": "Minor island", "min_zoom": 7.0, "scalerank": 8 }, "geometry": { "type": "Polygon", "coordinates": [ [ [ -123.395, 48.823 ], [ -123.366, 48.809 ], [ -123.374, 48.816 ], [ -123.355, 48.823 ], [ -123.359, 48.832 ], [ -123.404, 48.843 ], [ -123.395, 48.823 ] ] ] } },
{ "type": "Feature", "properties": { "featurecla": "Minor island", "min_zoom": 7.0, "scalerank": 8 }, "geometry": { "type": "Polygon", "coordinates": [ [ [ -125.186, 48.843 ], [ -125.203, 48.85 ], [ -125.204, 48.84 ], [ -125.191, 48.83 ], [ -125.186, 48.843 ] ] ] } },
{ "type": "Feature", "properties": { "featurecla": "Minor island", "min_zoom": 6.5, "scalerank": 7 }, "geometry": { "type": "Polygon", "coordinates": [ [ [ -123.302, 48.856 ], [ -123.338, 48.855 ], [ -123.322, 48.832 ], [ -123.232, 48.814 ], [ -123.249, 48.83 ], [ -123.247, 48.846 ], [ -123.265, 48.859 ], [ -123.248, 48.856 ], [ -123.296, 48.872 ], [ -123.305, 48.865 ], [ -123.302, 48.856 ] ] ] } },
{ "type": "Feature", "properties": { "featurecla": "Minor island", "min_zoom": 7.0, "scalerank": 8 }, "geometry": { "type": "Polygon", "coordinates": [ [ [ -125.292, 48.866 ], [ -125.312, 48.882 ], [ -125.314, 48.865 ], [ -125.292, 48.866 ] ] ] } },
{ "type": "Feature", "properties": { "featurecla": "Minor island", "min_zoom": 6.5, "scalerank": 7 }, "geometry": { "type": "Polygon", "coordinates": [ [ [ -125.122, 48.887 ], [ -125.135, 48.896 ], [ -125.16, 48.88 ], [ -125.162, 48.875 ], [ -125.122, 48.887 ] ] ] } },
{ "type": "Feature", "properties": { "featurecla": "Minor island", "min_zoom": 7.0, "scalerank": 8 }, "geometry": { "type": "Polygon", "coordinates": [ [ [ -125.333, 48.9 ], [ -125.353, 48.907 ], [ -125.335, 48.89 ], [ -125.333, 48.9 ] ] ] } },
{ "type": "Feature", "properties": { "featurecla": "Minor island", "min_zoom": 7.0, "scalerank": 8 }, "geometry": { "type": "Polygon", "coordinates": [ [ [ -125.326, 48.913 ], [ -125.335, 48.906 ], [ -125.324, 48.905 ], [ -125.318, 48.914 ], [ -125.326, 48.913 ] ] ] } },
{ "type": "Feature", "properties": { "featurecla": "Minor island", "min_zoom": 7.0, "scalerank": 8 }, "geometry": { "type": "Polygon", "coordinates": [ [ [ -125.258, 48.917 ], [ -125.263, 48.912 ], [ -125.248, 48.911 ], [ -125.248, 48.916 ], [ -125.258, 48.917 ] ] ] } },
{ "type": "Feature", "properties": { "featurecla": "Minor island", "min_zoom": 7.0, "scalerank": 8 }, "geometry": { "type": "Polygon", "coordinates": [ [ [ -125.267, 48.92 ], [ -125.295, 48.928 ], [ -125.292, 48.922 ], [ -125.281, 48.923 ], [ -125.292, 48.915 ], [ -125.268, 48.915 ], [ -125.267, 48.92 ] ] ] } },
{ "type": "Feature", "properties": { "featurecla": "Minor island", "min_zoom": 7.0, "scalerank": 8 }, "geometry": { "type": "Polygon", "coordinates": [ [ [ -125.234, 48.922 ], [ -125.237, 48.927 ], [ -125.278, 48.941 ], [ -125.272, 48.93 ], [ -125.258, 48.932 ], [ -125.247, 48.921 ], [ -125.242, 48.928 ], [ -125.234, 48.922 ] ] ] } },
{ "type": "Feature", "properties": { "featurecla": "Minor island", "min_zoom": 6.5, "scalerank": 7 }, "geometry": { "type": "Polygon", "coordinates": [ [ [ -125.05, 48.944 ], [ -125.057, 48.953 ], [ -125.07, 48.953 ], [ -125.103, 48.931 ], [ -125.12, 48.904 ], [ -125.099, 48.895 ], [ -125.067, 48.913 ], [ -125.05, 48.944 ] ] ] } },
{ "type": "Feature", "properties": { "featurecla": "Minor island", "min_zoom": 6.5, "scalerank": 7 }, "geometry": { "type": "Polygon", "coordinates": [ [ [ -123.634, 48.966 ], [ -123.644, 48.982 ], [ -123.66, 48.984 ], [ -123.668, 48.975 ], [ -123.656, 48.947 ], [ -123.634, 48.935 ], [ -123.634, 48.966 ] ] ] } },
{ "type": "Feature", "properties": { "featurecla": "Minor island", "min_zoom": 6.5, "scalerank": 7 }, "geometry": { "type": "Polygon", "coordinates": [ [ [ -123.674, 48.969 ], [ -123.672, 48.984 ], [ -123.656, 48.987 ], [ -123.657, 48.997 ], [ -123.68, 49.018 ], [ -123.704, 49.017 ], [ -123.693, 48.984 ], [ -123.674, 48.969 ] ] ] } },
{ "type": "Feature", "properties": { "featurecla": "Minor island", "min_zoom": 7.0, "scalerank": 8 }, "geometry": { "type": "Polygon", "coordinates": [ [ [ -123.438, 49.406 ], [ -123.471, 49.408 ], [ -123.5, 49.382 ], [ -123.475, 49.392 ], [ -123.438, 49.393 ], [ -123.438, 49.406 ] ] ] } },
{ "type": "Feature", "properties": { "featurecla": "Minor island", "min_zoom": 7.0, "scalerank": 8 }, "geometry": { "type": "Polygon", "coordinates": [ [ [ -123.963, 49.462 ], [ -123.952, 49.471 ], [ -123.955, 49.491 ], [ -123.983, 49.51 ], [ -123.987, 49.486 ], [ -123.974, 49.468 ], [ -123.963, 49.462 ] ] ] } },
{ "type": "Feature", "properties": { "featurecla": "Minor island", "min_zoom": 6.5, "scalerank": 7 }, "geometry": { "type": "Polygon", "coordinates": [ [ [ -126.485, 49.667 ], [ -126.528, 49.681 ], [ -126.541, 49.658 ], [ -126.556, 49.654 ], [ -126.567, 49.637 ], [ -126.542, 49.627 ], [ -126.519, 49.646 ], [ -126.524, 49.635 ], [ -126.545, 49.611 ], [ -126.518, 49.614 ], [ -126.507, 49.638 ], [ -126.486, 49.652 ], [ -126.485, 49.667 ] ] ] } },
{ "type": "Feature", "properties": { "featurecla": "Minor island", "min_zoom": 7.0, "scalerank": 8 }, "geometry": { "type": "Polygon", "coordinates": [ [ [ -124.63, 49.866 ], [ -124.654, 49.882 ], [ -124.667, 49.868 ], [ -124.668, 49.84 ], [ -124.64, 49.852 ], [ -124.63, 49.866 ] ] ] } },
{ "type": "Feature", "properties": { "featurecla": "Minor island", "min_zoom": 7.0, "scalerank": 8 }, "geometry": { "type": "Polygon", "coordinates": [ [ [ -124.885, 49.988 ], [ -124.945, 50.005 ], [ -124.948, 50.0 ], [ -124.941, 49.982 ], [ -124.916, 49.967 ], [ -124.9, 49.968 ], [ -124.885, 49.988 ] ] ] } },
{ "type": "Feature", "properties": { "featurecla": "Minor island", "min_zoom": 6.5, "scalerank": 7 }, "geometry": { "type": "Polygon", "coordinates": [ [ [ -126.693, 50.562 ], [ -126.704, 50.574 ], [ -126.752, 50.59 ], [ -126.762, 50.581 ], [ -126.774, 50.587 ], [ -126.782, 50.577 ], [ -126.756, 50.559 ], [ -126.706, 50.555 ], [ -126.693, 50.562 ] ] ] } },
{ "type": "Feature", "properties": { "featurecla": "Minor island", "min_zoom": 6.5, "scalerank": 7 }, "geometry": { "type": "Polygon", "coordinates": [ [ [ -126.691, 50.738 ], [ -126.666, 50.746 ], [ -126.662, 50.74 ], [ -126.633, 50.757 ], [ -126.652, 50.756 ], [ -126.653, 50.763 ], [ -126.682, 50.769 ], [ -126.719, 50.751 ], [ -126.691, 50.738 ] ] ] } },
{ "type": "Feature", "properties": { "featurecla": "Minor island", "min_zoom": 7.0, "scalerank": 8 }, "geometry": { "type": "Polygon", "coordinates": [ [ [ -127.612, 50.833 ], [ -127.614, 50.857 ], [ -127.624, 50.866 ], [ -127.648, 50.865 ], [ -127.629, 50.833 ], [ -127.612, 50.833 ] ] ] } },
{ "type": "Feature", "properties": { "featurecla": "Minor island", "min_zoom": 6.5, "scalerank": 7 }, "geometry": { "type": "Polygon", "coordinates": [ [ [ -126.819, 50.84 ], [ -126.742, 50.856 ], [ -126.75, 50.873 ], [ -126.813, 50.89 ], [ -126.853, 50.883 ], [ -126.887, 50.867 ], [ -126.862, 50.849 ], [ -126.909, 50.852 ], [ -126.924, 50.845 ], [ -126.819, 50.84 ] ] ] } },
{ "type": "Feature", "properties": { "featurecla": "Minor island", "min_zoom": 6.5, "scalerank": 7 }, "geometry": { "type": "Polygon", "coordinates": [ [ [ -79.06, 51.66 ], [ -79.087, 51.651 ], [ -79.083, 51.642 ], [ -79.059, 51.652 ], [ -79.06, 51.66 ] ] ] } },
{ "type": "Feature", "properties": { "featurecla": "Minor island", "min_zoom": 6.5, "scalerank": 7 }, "geometry": { "type": "Polygon", "coordinates": [ [ [ -79.275, 51.743 ], [ -79.195, 51.766 ], [ -79.205, 51.769 ], [ -79.234, 51.769 ], [ -79.284, 51.753 ], [ -79.287, 51.744 ], [ -79.275, 51.743 ] ] ] } },
{ "type": "Feature", "properties": { "featurecla": "Minor island", "min_zoom": 6.5, "scalerank": 7 }, "geometry": { "type": "Polygon", "coordinates": [ [ [ -79.312, 51.93 ], [ -79.249, 51.942 ], [ -79.241, 51.96 ], [ -79.289, 51.965 ], [ -79.312, 51.953 ], [ -79.319, 51.934 ], [ -79.312, 51.93 ] ] ] } },
{ "type": "Feature", "properties": { "featurecla": "Minor island", "min_zoom": 6.5, "scalerank": 7 }, "geometry": { "type": "Polygon", "coordinates": [ [ [ -79.231, 51.997 ], [ -79.232, 51.99 ], [ -79.22, 51.985 ], [ -79.204, 51.993 ], [ -79.199, 52.011 ], [ -79.231, 51.997 ] ] ] } },
{ "type": "Feature", "properties": { "featurecla": "Minor island", "min_zoom": 6.5, "scalerank": 7 }, "geometry": { "type": "Polygon", "coordinates": [ [ [ -78.954, 52.073 ], [ -78.946, 52.087 ], [ -78.963, 52.11 ], [ -78.988, 52.101 ], [ -78.991, 52.092 ], [ -78.954, 52.073 ] ] ] } },
{ "type": "Feature", "properties": { "featurecla": "Minor island", "min_zoom": 6.5, "scalerank": 7 }, "geometry": { "type": "Polygon", "coordinates": [ [ [ -79.176, 52.56 ], [ -79.177, 52.533 ], [ -79.165, 52.526 ], [ -79.152, 52.545 ], [ -79.156, 52.553 ], [ -79.176, 52.56 ] ] ] } },
{ "type": "Feature", "properties": { "featurecla": "Minor island", "min_zoom": 6.5, "scalerank": 7 }, "geometry": { "type": "Polygon", "coordinates": [ [ [ -129.395, 52.555 ], [ -129.409, 52.567 ], [ -129.417, 52.553 ], [ -129.405, 52.549 ], [ -129.395, 52.555 ] ] ] } },
{ "type": "Feature", "properties": { "featurecla": "Minor island", "min_zoom": 7.0, "scalerank": 8 }, "geometry": { "type": "Polygon", "coordinates": [ [ [ -131.357, 52.548 ], [ -131.35, 52.564 ], [ -131.376, 52.583 ], [ -131.405, 52.567 ], [ -131.426, 52.568 ], [ -131.443, 52.559 ], [ -131.392, 52.54 ], [ -131.357, 52.548 ] ] ] } },
{ "type": "Feature", "properties": { "featurecla": "Minor island", "min_zoom": 6.5, "scalerank": 7 }, "geometry": { "type": "Polygon", "coordinates": [ [ [ -131.618, 52.766 ], [ -131.634, 52.774 ], [ -131.754, 52.765 ], [ -131.723, 52.751 ], [ -131.615, 52.749 ], [ -131.618, 52.766 ] ] ] } },
{ "type": "Feature", "properties": { "featurecla": "Minor island", "min_zoom": 7.0, "scalerank": 8 }, "geometry": { "type": "Polygon", "coordinates": [ [ [ -131.495, 52.877 ], [ -131.546, 52.87 ], [ -131.521, 52.861 ], [ -131.495, 52.877 ] ] ] } },
{ "type": "Feature", "properties": { "featurecla": "Minor island", "min_zoom": 7.0, "scalerank": 8 }, "geometry": { "type": "Polygon", "coordinates": [ [ [ -78.887, 52.972 ], [ -78.86, 52.974 ], [ -78.859, 52.984 ], [ -78.87, 52.985 ], [ -78.922, 52.965 ], [ -78.887, 52.972 ] ] ] } },
{ "type": "Feature", "properties": { "featurecla": "Minor island", "min_zoom": 6.5, "scalerank": 7 }, "geometry": { "type": "Polygon", "coordinates": [ [ [ -76.751, 56.214 ], [ -76.771, 56.194 ], [ -76.73, 56.204 ], [ -76.726, 56.214 ], [ -76.729, 56.227 ], [ -76.75, 56.242 ], [ -76.775, 56.235 ], [ -76.751, 56.214 ] ] ] } },
{ "type": "Feature", "properties": { "featurecla": "Minor island", "min_zoom": 6.5, "scalerank": 7 }, "geometry": { "type": "Polygon", "coordinates": [ [ [ -78.004, 56.301 ], [ -78.05, 56.304 ], [ -78.081, 56.29 ], [ -78.051, 56.28 ], [ -78.029, 56.297 ], [ -78.012, 56.299 ], [ -78.005, 56.289 ], [ -78.004, 56.301 ] ] ] } },
{ "type": "Feature", "properties": { "featurecla": "Minor island", "min_zoom": 6.5, "scalerank": 7 }, "geometry": { "type": "Polygon", "coordinates": [ [ [ -76.66, 56.318 ], [ -76.672, 56.331 ], [ -76.674, 56.347 ], [ -76.683, 56.353 ], [ -76.682, 56.336 ], [ -76.749, 56.278 ], [ -76.68, 56.295 ], [ -76.66, 56.318 ] ] ] } },
{ "type": "Feature", "properties": { "featurecla": "Minor island", "min_zoom": 6.5, "scalerank": 7 }, "geometry": { "type": "Polygon", "coordinates": [ [ [ -77.762, 56.351 ], [ -77.772, 56.349 ], [ -77.781, 56.326 ], [ -77.762, 56.338 ], [ -77.762, 56.351 ] ] ] } },
{ "type": "Feature", "properties": { "featurecla": "Minor island", "min_zoom": 6.5, "scalerank": 7 }, "geometry": { "type": "Polygon", "coordinates": [ [ [ -77.752, 56.359 ], [ -77.735, 56.351 ], [ -77.747, 56.37 ], [ -77.754, 56.367 ], [ -77.752, 56.359 ] ] ] } },
{ "type": "Feature", "properties": { "featurecla": "Minor island", "min_zoom": 6.5, "scalerank": 7 }, "geometry": { "type": "Polygon", "coordinates": [ [ [ -77.798, 56.365 ], [ -77.784, 56.369 ], [ -77.769, 56.358 ], [ -77.764, 56.364 ], [ -77.775, 56.38 ], [ -77.786, 56.38 ], [ -77.798, 56.365 ] ] ] } },
{ "type": "Feature", "properties": { "featurecla": "Minor island", "min_zoom": 6.5, "scalerank": 7 }, "geometry": { "type": "Polygon", "coordinates": [ [ [ -76.622, 56.448 ], [ -76.632, 56.461 ], [ -76.658, 56.472 ], [ -76.682, 56.442 ], [ -76.649, 56.426 ], [ -76.622, 56.448 ] ] ] } },
{ "type": "Feature", "properties": { "featurecla": "Minor island", "min_zoom": 6.5, "scalerank": 7 }, "geometry": { "type": "Polygon", "coordinates": [ [ [ -78.058, 56.541 ], [ -78.047, 56.541 ], [ -78.052, 56.546 ], [ -78.063, 56.546 ], [ -78.058, 56.541 ] ] ] } },
{ "type": "Feature", "properties": { "featurecla": "Minor island", "min_zoom": 6.5, "scalerank": 7 }, "geometry": { "type": "Polygon", "coordinates": [ [ [ -78.095, 56.568 ], [ -78.117, 56.569 ], [ -78.12, 56.564 ], [ -78.095, 56.568 ] ] ] } },
{ "type": "Feature", "properties": { "featurecla": "Minor island", "min_zoom": 6.5, "scalerank": 7 }, "geometry": { "type": "Polygon", "coordinates": [ [ [ -78.339, 56.695 ], [ -78.425, 56.705 ], [ -78.434, 56.7 ], [ -78.348, 56.691 ], [ -78.339, 56.695 ] ] ] } },
{ "type": "Feature", "properties": { "featurecla": "Minor island", "min_zoom": 6.5, "scalerank": 7 }, "geometry": { "type": "Polygon", "coordinates": [ [ [ -76.652, 56.762 ], [ -76.658, 56.758 ], [ -76.66, 56.734 ], [ -76.62, 56.717 ], [ -76.623, 56.746 ], [ -76.652, 56.762 ] ] ] } },
{ "type": "Feature", "properties": { "featurecla": "Minor island", "min_zoom": 6.5, "scalerank": 7 }, "geometry": { "type": "Polygon", "coordinates": [ [ [ -76.644, 56.864 ], [ -76.663, 56.88 ], [ -76.675, 56.851 ], [ -76.649, 56.85 ], [ -76.644, 56.864 ] ] ] } },
{ "type": "Feature", "properties": { "featurecla": "Minor island", "min_zoom": 6.5, "scalerank": 7 }, "geometry": { "type": "Polygon", "coordinates": [ [ [ -76.682, 56.951 ], [ -76.66, 56.973 ], [ -76.671, 56.992 ], [ -76.688, 56.989 ], [ -76.699, 56.969 ], [ -76.682, 56.951 ] ] ] } },
{ "type": "Feature", "properties": { "featurecla": "Minor island", "min_zoom": 6.5, "scalerank": 7 }, "geometry": { "type": "Polygon", "coordinates": [ [ [ -76.713, 57.055 ], [ -76.711, 57.012 ], [ -76.694, 56.991 ], [ -76.687, 57.003 ], [ -76.655, 57.014 ], [ -76.654, 57.026 ], [ -76.673, 57.047 ], [ -76.713, 57.055 ] ] ] } },
{ "type": "Feature", "properties": { "featurecla": "Minor island", "min_zoom": 6.5, "scalerank": 7 }, "geometry": { "type": "Polygon", "coordinates": [ [ [ -76.721, 57.223 ], [ -76.75, 57.269 ], [ -76.781, 57.262 ], [ -76.756, 57.222 ], [ -76.732, 57.218 ], [ -76.724, 57.207 ], [ -76.721, 57.223 ] ] ] } },
{ "type": "Feature", "properties": { "featurecla": "Minor island", "min_zoom": 6.5, "scalerank": 7 }, "geometry": { "type": "Polygon", "coordinates": [ [ [ -78.5, 57.35 ], [ -78.417, 57.365 ], [ -78.42, 57.372 ], [ -78.445, 57.377 ], [ -78.479, 57.375 ], [ -78.517, 57.356 ], [ -78.5, 57.35 ] ] ] } },
{ "type": "Feature", "properties": { "featurecla": "Minor island", "min_zoom": 6.5, "scalerank": 7 }, "geometry": { "type": "Polygon", "coordinates": [ [ [ -78.515, 57.526 ], [ -78.506, 57.539 ], [ -78.541, 57.543 ], [ -78.544, 57.538 ], [ -78.526, 57.525 ], [ -78.515, 57.526 ] ] ] } },
{ "type": "Feature", "properties": { "featurecla": "Minor island", "min_zoom": 6.5, "scalerank": 7 }, "geometry": { "type": "Polygon", "coordinates": [ [ [ -76.865, 57.52 ], [ -76.866, 57.551 ], [ -76.906, 57.581 ], [ -76.903, 57.55 ], [ -76.879, 57.505 ], [ -76.865, 57.52 ] ] ] } },
{ "type": "Feature", "properties": { "featurecla": "Minor island", "min_zoom": 7.0, "scalerank": 8 }, "geometry": { "type": "Polygon", "coordinates": [ [ [ -79.654, 57.913 ], [ -79.653, 57.892 ], [ -79.647, 57.901 ], [ -79.648, 57.919 ], [ -79.654, 57.913 ] ] ] } },
{ "type": "Feature", "properties": { "featurecla": "Minor island", "min_zoom": 6.5, "scalerank": 7 }, "geometry": { "type": "Polygon", "coordinates": [ [ [ -77.582, 58.18 ], [ -77.539, 58.173 ], [ -77.66, 58.229 ], [ -77.685, 58.228 ], [ -77.618, 58.202 ], [ -77.613, 58.198 ], [ -77.619, 58.192 ], [ -77.608, 58.185 ], [ -77.593, 58.188 ], [ -77.582, 58.18 ] ] ] } },
{ "type": "Feature", "properties": { "featurecla": "Minor island", "min_zoom": 6.5, "scalerank": 7 }, "geometry": { "type": "Polygon", "coordinates": [ [ [ -78.149, 58.383 ], [ -78.083, 58.368 ], [ -78.078, 58.377 ], [ -78.095, 58.393 ], [ -78.122, 58.403 ], [ -78.21, 58.404 ], [ -78.149, 58.383 ] ] ] } },
{ "type": "Feature", "properties": { "featurecla": "Minor island", "min_zoom": 7.0, "scalerank": 8 }, "geometry": { "type": "Polygon", "coordinates": [ [ [ -80.799, 58.411 ], [ -80.782, 58.408 ], [ -80.758, 58.42 ], [ -80.811, 58.411 ], [ -80.799, 58.411 ] ] ] } },
{ "type": "Feature", "properties": { "featurecla": "Minor island", "min_zoom": 6.5, "scalerank": 7 }, "geometry": { "type": "Polygon", "coordinates": [ [ [ -78.236, 58.444 ], [ -78.176, 58.427 ], [ -78.199, 58.443 ], [ -78.251, 58.454 ], [ -78.236, 58.444 ] ] ] } },
{ "type": "Feature", "properties": { "featurecla": "Minor island", "min_zoom": 6.5, "scalerank": 7 }, "geometry": { "type": "Polygon", "coordinates": [ [ [ -78.554, 58.824 ], [ -78.564, 58.817 ], [ -78.585, 58.821 ], [ -78.599, 58.812 ], [ -78.629, 58.812 ], [ -78.611, 58.797 ], [ -78.589, 58.802 ], [ -78.569, 58.795 ], [ -78.554, 58.824 ] ] ] } },
{ "type": "Feature", "properties": { "featurecla": "Minor island", "min_zoom": 6.5, "scalerank": 7 }, "geometry": { "type": "Polygon", "coordinates": [ [ [ -78.6, 58.943 ], [ -78.572, 58.941 ], [ -78.569, 58.948 ], [ -78.575, 58.955 ], [ -78.593, 58.952 ], [ -78.6, 58.943 ] ] ] } },
{ "type": "Feature", "properties": { "featurecla": "Minor island", "min_zoom": 6.5, "scalerank": 7 }, "geometry": { "type": "Polygon", "coordinates": [ [ [ -80.59, 59.065 ], [ -80.603, 59.067 ], [ -80.608, 59.05 ], [ -80.58, 59.057 ], [ -80.59, 59.065 ] ] ] } },
{ "type": "Feature", "properties": { "featurecla": "Minor island", "min_zoom": 6.5, "scalerank": 7 }, "geometry": { "type": "Polygon", "coordinates": [ [ [ -80.637, 59.237 ], [ -80.619, 59.23 ], [ -80.615, 59.252 ], [ -80.624, 59.264 ], [ -80.637, 59.237 ] ] ] } },
{ "type": "Feature", "properties": { "featurecla": "Minor island", "min_zoom": 7.0, "scalerank": 8 }, "geometry": { "type": "Polygon", "coordinates": [ [ [ -80.415, 59.271 ], [ -80.427, 59.252 ], [ -80.409, 59.259 ], [ -80.404, 59.272 ], [ -80.415, 59.271 ] ] ] } },
{ "type": "Feature", "properties": { "featurecla": "Minor island", "min_zoom": 6.5, "scalerank": 7 }, "geometry": { "type": "Polygon", "coordinates": [ [ [ -80.585, 59.301 ], [ -80.629, 59.294 ], [ -80.601, 59.282 ], [ -80.575, 59.289 ], [ -80.585, 59.301 ] ] ] } },
{ "type": "Feature", "properties": { "featurecla": "Minor island", "min_zoom": 6.5, "scalerank": 7 }, "geometry": { "type": "Polygon", "coordinates": [ [ [ -80.292, 59.392 ], [ -80.298, 59.407 ], [ -80.302, 59.394 ], [ -80.313, 59.391 ], [ -80.318, 59.379 ], [ -80.292, 59.392 ] ] ] } },
{ "type": "Feature", "properties": { "featurecla": "Minor island", "min_zoom": 6.5, "scalerank": 7 }, "geometry": { "type": "Polygon", "coordinates": [ [ [ -80.276, 59.4 ], [ -80.263, 59.385 ], [ -80.266, 59.373 ], [ -80.259, 59.376 ], [ -80.255, 59.414 ], [ -80.276, 59.4 ] ] ] } },
{ "type": "Feature", "properties": { "featurecla": "Minor island", "min_zoom": 6.5, "scalerank": 7 }, "geometry": { "type": "Polygon", "coordinates": [ [ [ -80.671, 59.461 ], [ -80.622, 59.497 ], [ -80.656, 59.483 ], [ -80.656, 59.474 ], [ -80.674, 59.461 ], [ -80.671, 59.461 ] ] ] } },
{ "type": "Feature", "properties": { "featurecla": "Minor island", "min_zoom": 6.5, "scalerank": 7 }, "geometry": { "type": "Polygon", "coordinates": [ [ [ -80.339, 59.547 ], [ -80.301, 59.564 ], [ -80.296, 59.576 ], [ -80.339, 59.547 ] ] ] } },
{ "type": "Feature", "properties": { "featurecla": "Minor island", "min_zoom": 6.5, "scalerank": 7 }, "geometry": { "type": "Polygon", "coordinates": [ [ [ -77.61, 59.704 ], [ -77.622, 59.719 ], [ -77.697, 59.709 ], [ -77.653, 59.696 ], [ -77.61, 59.704 ] ] ] } },
{ "type": "Feature", "properties": { "featurecla": "Minor island", "min_zoom": 6.5, "scalerank": 7 }, "geometry": { "type": "Polygon", "coordinates": [ [ [ -77.386, 59.843 ], [ -77.393, 59.854 ], [ -77.408, 59.847 ], [ -77.388, 59.838 ], [ -77.386, 59.843 ] ] ] } },
{ "type": "Feature", "properties": { "featurecla": "Minor island", "min_zoom": 6.5, "scalerank": 7 }, "geometry": { "type": "Polygon", "coordinates": [ [ [ -77.417, 59.854 ], [ -77.411, 59.869 ], [ -77.423, 59.872 ], [ -77.427, 59.861 ], [ -77.417, 59.854 ] ] ] } },
{ "type": "Feature", "properties": { "featurecla": "Minor island", "min_zoom": 6.5, "scalerank": 7 }, "geometry": { "type": "Polygon", "coordinates": [ [ [ -79.883, 59.88 ], [ -79.864, 59.894 ], [ -79.874, 59.894 ], [ -79.888, 59.882 ], [ -79.883, 59.88 ] ] ] } },
{ "type": "Feature", "properties": { "featurecla": "Minor island", "min_zoom": 6.5, "scalerank": 7 }, "geometry": { "type": "Polygon", "coordinates": [ [ [ -79.922, 59.929 ], [ -79.947, 59.924 ], [ -79.949, 59.908 ], [ -79.941, 59.906 ], [ -79.915, 59.925 ], [ -79.922, 59.929 ] ] ] } },
{ "type": "Feature", "properties": { "featurecla": "Minor island", "min_zoom": 6.5, "scalerank": 7 }, "geometry": { "type": "Polygon", "coordinates": [ [ [ -79.898, 59.905 ], [ -79.839, 59.958 ], [ -79.856, 59.958 ], [ -79.886, 59.941 ], [ -79.898, 59.905 ] ] ] } },
{ "type": "Feature", "properties": { "featurecla": "Minor island", "min_zoom": 6.5, "scalerank": 7 }, "geometry": { "type": "Polygon", "coordinates": [ [ [ -144.369, 59.994 ], [ -144.379, 60.045 ], [ -144.395, 60.048 ], [ -144.386, 60.016 ], [ -144.392, 59.996 ], [ -144.369, 59.994 ] ] ] } },
{ "type": "Feature", "properties": { "featurecla": "Minor island", "min_zoom": 6.5, "scalerank": 7 }, "geometry": { "type": "Polygon", "coordinates": [ [ [ -77.649, 60.206 ], [ -77.726, 60.201 ], [ -77.704, 60.195 ], [ -77.641, 60.192 ], [ -77.635, 60.197 ], [ -77.649, 60.206 ] ] ] } },
{ "type": "Feature", "properties": { "featurecla": "Minor island", "min_zoom": 7.0, "scalerank": 8 }, "geometry": { "type": "Polygon", "coordinates": [ [ [ -144.915, 60.22 ], [ -144.92, 60.23 ], [ -144.948, 60.225 ], [ -145.052, 60.232 ], [ -145.035, 60.223 ], [ -144.94, 60.215 ], [ -144.915, 60.22 ] ] ] } },
{ "type": "Feature", "properties": { "featurecla": "Minor island", "min_zoom": 7.0, "scalerank": 8 }, "geometry": { "type": "Polygon", "coordinates": [ [ [ -144.765, 60.219 ], [ -144.88, 60.23 ], [ -144.791, 60.214 ], [ -144.767, 60.213 ], [ -144.765, 60.219 ] ] ] } },
{ "type": "Feature", "properties": { "featurecla": "Minor island", "min_zoom": 6.5, "scalerank": 7 }, "geometry": { "type": "Polygon", "coordinates": [ [ [ -77.737, 60.235 ], [ -77.681, 60.209 ], [ -77.673, 60.222 ], [ -77.737, 60.235 ] ] ] } },
{ "type": "Feature", "properties": { "featurecla": "Minor island", "min_zoom": 7.0, "scalerank": 8 }, "geometry": { "type": "Polygon", "coordinates": [ [ [ -145.137, 60.242 ], [ -145.216, 60.255 ], [ -145.149, 60.228 ], [ -145.137, 60.229 ], [ -145.137, 60.242 ] ] ] } },
{ "type": "Feature", "properties": { "featurecla": "Minor island", "min_zoom": 7.0, "scalerank": 8 }, "geometry": { "type": "Polygon", "coordinates": [ [ [ -77.636, 60.269 ], [ -77.641, 60.252 ], [ -77.614, 60.255 ], [ -77.611, 60.26 ], [ -77.636, 60.269 ] ] ] } },
{ "type": "Feature", "properties": { "featurecla": "Minor island", "min_zoom": 7.0, "scalerank": 8 }, "geometry": { "type": "Polygon", "coordinates": [ [ [ -145.252, 60.247 ], [ -145.387, 60.276 ], [ -145.282, 60.239 ], [ -145.252, 60.247 ] ] ] } },
{ "type": "Feature", "properties": { "featurecla": "Minor island", "min_zoom": 7.0, "scalerank": 8 }, "geometry": { "type": "Polygon", "coordinates": [ [ [ -145.486, 60.309 ], [ -145.57, 60.307 ], [ -145.589, 60.336 ], [ -145.611, 60.352 ], [ -145.61, 60.346 ], [ -145.583, 60.321 ], [ -145.58, 60.308 ], [ -145.526, 60.296 ], [ -145.483, 60.303 ], [ -145.486, 60.309 ] ] ] } },
{ "type": "Feature", "properties": { "featurecla": "Minor island", "min_zoom": 7.0, "scalerank": 8 }, "geometry": { "type": "LineString", "coordinates": [ [ -145.741, 60.358 ], [ -145.737, 60.357 ] ] } },
{ "type": "Feature", "properties": { "featurecla": "Minor island", "min_zoom": 7.0, "scalerank": 8 }, "geometry": { "type": "Polygon", "coordinates": [ [ [ -145.813, 60.374 ], [ -145.81, 60.37 ], [ -145.808, 60.37 ], [ -145.813, 60.374 ] ] ] } },
{ "type": "Feature", "properties": { "featurecla": "Minor island", "min_zoom": 7.0, "scalerank": 8 }, "geometry": { "type": "Polygon", "coordinates": [ [ [ -145.857, 60.382 ], [ -145.872, 60.388 ], [ -145.896, 60.391 ], [ -145.857, 60.382 ] ] ] } },
{ "type": "Feature", "properties": { "featurecla": "Minor island", "min_zoom": 7.0, "scalerank": 8 }, "geometry": { "type": "Polygon", "coordinates": [ [ [ -77.873, 60.584 ], [ -77.893, 60.581 ], [ -77.883, 60.573 ], [ -77.862, 60.577 ], [ -77.873, 60.584 ] ] ] } },
{ "type": "Feature", "properties": { "featurecla": "Minor island", "min_zoom": 7.0, "scalerank": 8 }, "geometry": { "type": "Polygon", "coordinates": [ [ [ -77.901, 60.749 ], [ -77.903, 60.761 ], [ -77.923, 60.747 ], [ -77.901, 60.749 ] ] ] } },
{ "type": "Feature", "properties": { "featurecla": "Minor island", "min_zoom": 6.5, "scalerank": 7 }, "geometry": { "type": "Polygon", "coordinates": [ [ [ -78.18, 60.768 ], [ -78.177, 60.756 ], [ -78.166, 60.751 ], [ -78.082, 60.777 ], [ -78.122, 60.787 ], [ -78.18, 60.768 ] ] ] } },
{ "type": "Feature", "properties": { "featurecla": "Minor island", "min_zoom": 7.0, "scalerank": 8 }, "geometry": { "type": "Polygon", "coordinates": [ [ [ -146.787, 60.9 ], [ -146.819, 60.897 ], [ -146.816, 60.892 ], [ -146.794, 60.891 ], [ -146.79, 60.883 ], [ -146.775, 60.887 ], [ -146.787, 60.9 ] ] ] } },
{ "type": "Feature", "properties": { "featurecla": "Minor island", "min_zoom": 7.0, "scalerank": 8 }, "geometry": { "type": "Polygon", "coordinates": [ [ [ -20.597, 63.311 ], [ -20.612, 63.311 ], [ -20.622, 63.301 ], [ -20.596, 63.299 ], [ -20.597, 63.311 ] ] ] } },
{ "type": "Feature", "properties": { "featurecla": "Minor island", "min_zoom": 6.5, "scalerank": 7 }, "geometry": { "type": "Polygon", "coordinates": [ [ [ -17.007, 63.782 ], [ -17.055, 63.785 ], [ -17.104, 63.784 ], [ -17.007, 63.782 ] ] ] } },
{ "type": "Feature", "properties": { "featurecla": "Minor island", "min_zoom": 6.5, "scalerank": 7 }, "geometry": { "type": "Polygon", "coordinates": [ [ [ -17.222, 63.783 ], [ -17.243, 63.787 ], [ -17.303, 63.781 ], [ -17.222, 63.783 ] ] ] } },
{ "type": "Feature", "properties": { "featurecla": "Minor island", "min_zoom": 6.5, "scalerank": 7 }, "geometry": { "type": "Polygon", "coordinates": [ [ [ -17.178, 63.787 ], [ -17.163, 63.785 ], [ -17.134, 63.784 ], [ -17.178, 63.787 ] ] ] } },
{ "type": "Feature", "properties": { "featurecla": "Minor island", "min_zoom": 6.5, "scalerank": 7 }, "geometry": { "type": "Polygon", "coordinates": [ [ [ -16.803, 63.789 ], [ -16.861, 63.793 ], [ -16.907, 63.782 ], [ -16.803, 63.789 ] ] ] } },
{ "type": "Feature", "properties": { "featurecla": "Minor island", "min_zoom": 6.5, "scalerank": 7 }, "geometry": { "type": "Polygon", "coordinates": [ [ [ -16.701, 63.795 ], [ -16.744, 63.793 ], [ -16.772, 63.791 ], [ -16.701, 63.795 ] ] ] } },
{ "type": "Feature", "properties": { "featurecla": "Minor island", "min_zoom": 6.5, "scalerank": 7 }, "geometry": { "type": "Polygon", "coordinates": [ [ [ -16.695, 63.795 ], [ -16.689, 63.796 ], [ -16.692, 63.796 ], [ -16.695, 63.795 ] ] ] } },
{ "type": "Feature", "properties": { "featurecla": "Minor island", "min_zoom": 6.5, "scalerank": 7 }, "geometry": { "type": "Polygon", "coordinates": [ [ [ -16.65, 63.803 ], [ -16.684, 63.797 ], [ -16.642, 63.801 ], [ -16.65, 63.803 ] ] ] } },
{ "type": "Feature", "properties": { "featurecla": "Minor island", "min_zoom": 6.5, "scalerank": 7 }, "geometry": { "type": "Polygon", "coordinates": [ [ [ -16.976, 63.817 ], [ -16.986, 63.8 ], [ -16.979, 63.798 ], [ -16.974, 63.808 ], [ -16.976, 63.817 ] ] ] } },
{ "type": "Feature", "properties": { "featurecla": "Minor island", "min_zoom": 6.5, "scalerank": 7 }, "geometry": { "type": "Polygon", "coordinates": [ [ [ -16.618, 63.823 ], [ -16.652, 63.809 ], [ -16.638, 63.807 ], [ -16.614, 63.821 ], [ -16.618, 63.823 ] ] ] } },
{ "type": "Feature", "properties": { "featurecla": "Minor island", "min_zoom": 6.5, "scalerank": 7 }, "geometry": { "type": "Polygon", "coordinates": [ [ [ -16.535, 63.878 ], [ -16.596, 63.847 ], [ -16.6, 63.84 ], [ -16.535, 63.878 ] ] ] } },
{ "type": "Feature", "properties": { "featurecla": "Minor island", "min_zoom": 7.0, "scalerank": 8 }, "geometry": { "type": "Polygon", "coordinates": [ [ [ -21.842, 64.166 ], [ -21.867, 64.179 ], [ -21.876, 64.175 ], [ -21.842, 64.157 ], [ -21.833, 64.16 ], [ -21.842, 64.166 ] ] ] } },
{ "type": "Feature", "properties": { "featurecla": "Minor island", "min_zoom": 7.0, "scalerank": 8 }, "geometry": { "type": "Polygon", "coordinates": [ [ [ -22.33, 64.53 ], [ -22.355, 64.536 ], [ -22.372, 64.527 ], [ -22.363, 64.514 ], [ -22.33, 64.53 ] ] ] } },
{ "type": "Feature", "properties": { "featurecla": "Minor island", "min_zoom": 7.0, "scalerank": 8 }, "geometry": { "type": "Polygon", "coordinates": [ [ [ -22.385, 64.728 ], [ -22.39, 64.735 ], [ -22.405, 64.732 ], [ -22.464, 64.768 ], [ -22.46, 64.757 ], [ -22.416, 64.732 ], [ -22.385, 64.728 ] ] ] } },
{ "type": "Feature", "properties": { "featurecla": "Minor island", "min_zoom": 6.5, "scalerank": 7 }, "geometry": { "type": "Polygon", "coordinates": [ [ [ -22.435, 65.078 ], [ -22.517, 65.082 ], [ -22.522, 65.069 ], [ -22.435, 65.078 ] ] ] } },
{ "type": "Feature", "properties": { "featurecla": "Minor island", "min_zoom": 7.0, "scalerank": 8 }, "geometry": { "type": "Polygon", "coordinates": [ [ [ -22.585, 65.12 ], [ -22.599, 65.127 ], [ -22.618, 65.122 ], [ -22.6, 65.113 ], [ -22.615, 65.106 ], [ -22.587, 65.11 ], [ -22.585, 65.12 ] ] ] } },
{ "type": "Feature", "properties": { "featurecla": "Minor island", "min_zoom": 7.0, "scalerank": 8 }, "geometry": { "type": "Polygon", "coordinates": [ [ [ -22.704, 65.127 ], [ -22.716, 65.127 ], [ -22.709, 65.122 ], [ -22.7, 65.127 ], [ -22.704, 65.127 ] ] ] } },
{ "type": "Feature", "properties": { "featurecla": "Minor island", "min_zoom": 7.0, "scalerank": 8 }, "geometry": { "type": "Polygon", "coordinates": [ [ [ -22.537, 65.137 ], [ -22.579, 65.133 ], [ -22.573, 65.123 ], [ -22.559, 65.122 ], [ -22.537, 65.137 ] ] ] } },
{ "type": "Feature", "properties": { "featurecla": "Minor island", "min_zoom": 7.0, "scalerank": 8 }, "geometry": { "type": "Polygon", "coordinates": [ [ [ -22.657, 65.155 ], [ -22.687, 65.149 ], [ -22.68, 65.142 ], [ -22.657, 65.149 ], [ -22.657, 65.155 ] ] ] } },
{ "type": "Feature", "properties": { "featurecla": "Minor island", "min_zoom": 6.5, "scalerank": 7 }, "geometry": { "type": "Polygon", "coordinates": [ [ [ -22.643, 65.17 ], [ -22.609, 65.183 ], [ -22.663, 65.163 ], [ -22.639, 65.162 ], [ -22.643, 65.17 ] ] ] } },
{ "type": "Feature", "properties": { "featurecla": "Minor island", "min_zoom": 7.0, "scalerank": 8 }, "geometry": { "type": "Polygon", "coordinates": [ [ [ -22.835, 65.277 ], [ -22.859, 65.268 ], [ -22.834, 65.275 ], [ -22.835, 65.277 ] ] ] } },
{ "type": "Feature", "properties": { "featurecla": "Minor island", "min_zoom": 7.0, "scalerank": 8 }, "geometry": { "type": "Polygon", "coordinates": [ [ [ -22.912, 65.378 ], [ -22.924, 65.371 ], [ -22.904, 65.378 ], [ -22.912, 65.378 ] ] ] } },
{ "type": "Feature", "properties": { "featurecla": "Minor island", "min_zoom": 7.0, "scalerank": 8 }, "geometry": { "type": "Polygon", "coordinates": [ [ [ -22.807, 65.38 ], [ -22.82, 65.376 ], [ -22.821, 65.367 ], [ -22.803, 65.381 ], [ -22.807, 65.38 ] ] ] } },
{ "type": "Feature", "properties": { "featurecla": "Minor island", "min_zoom": 7.0, "scalerank": 8 }, "geometry": { "type": "Polygon", "coordinates": [ [ [ -22.649, 65.437 ], [ -22.625, 65.449 ], [ -22.655, 65.441 ], [ -22.649, 65.437 ] ] ] } },
{ "type": "Feature", "properties": { "featurecla": "Minor island", "min_zoom": 7.0, "scalerank": 8 }, "geometry": { "type": "Polygon", "coordinates": [ [ [ -22.094, 65.467 ], [ -22.107, 65.458 ], [ -22.088, 65.467 ], [ -22.094, 65.467 ] ] ] } },
{ "type": "Feature", "properties": { "featurecla": "Minor island", "min_zoom": 7.0, "scalerank": 8 }, "geometry": { "type": "Polygon", "coordinates": [ [ [ -23.141, 65.467 ], [ -23.152, 65.466 ], [ -23.16, 65.461 ], [ -23.141, 65.467 ] ] ] } },
{ "type": "Feature", "properties": { "featurecla": "Minor island", "min_zoom": 7.0, "scalerank": 8 }, "geometry": { "type": "Polygon", "coordinates": [ [ [ -67.215, 80.484 ], [ -67.166, 80.483 ], [ -67.153, 80.491 ], [ -67.205, 80.505 ], [ -67.293, 80.502 ], [ -67.215, 80.484 ] ] ] } },
{ "type": "Feature", "properties": { "featurecla": "Minor island", "min_zoom": 7.0, "scalerank": 8 }, "geometry": { "type": "Polygon", "coordinates": [ [ [ -66.373, 80.825 ], [ -66.321, 80.82 ], [ -66.298, 80.827 ], [ -66.378, 80.831 ], [ -66.373, 80.825 ] ] ] } },
{ "type": "Feature", "properties": { "featurecla": "Minor island", "min_zoom": 7.0, "scalerank": 8 }, "geometry": { "type": "Polygon", "coordinates": [ [ [ -79.005, 53.041 ], [ -79.029, 53.038 ], [ -79.024, 53.034 ], [ -79.007, 53.027 ], [ -79.005, 53.041 ] ] ] } },
{ "type": "Feature", "properties": { "featurecla": "Minor island", "min_zoom": 6.5, "scalerank": 7 }, "geometry": { "type": "Polygon", "coordinates": [ [ [ -132.045, 53.222 ], [ -132.12, 53.204 ], [ -132.125, 53.193 ], [ -132.121, 53.187 ], [ -132.074, 53.192 ], [ -132.034, 53.21 ], [ -132.045, 53.222 ] ] ] } },
{ "type": "Feature", "properties": { "featurecla": "Minor island", "min_zoom": 6.5, "scalerank": 7 }, "geometry": { "type": "Polygon", "coordinates": [ [ [ -78.994, 53.29 ], [ -79.009, 53.284 ], [ -79.003, 53.276 ], [ -78.977, 53.288 ], [ -78.994, 53.29 ] ] ] } },
{ "type": "Feature", "properties": { "featurecla": "Minor island", "min_zoom": 6.5, "scalerank": 7 }, "geometry": { "type": "Polygon", "coordinates": [ [ [ -79.049, 53.293 ], [ -79.001, 53.296 ], [ -79.039, 53.299 ], [ -79.049, 53.293 ] ] ] } },
{ "type": "Feature", "properties": { "featurecla": "Minor island", "min_zoom": 6.5, "scalerank": 7 }, "geometry": { "type": "Polygon", "coordinates": [ [ [ -79.661, 53.302 ], [ -79.657, 53.307 ], [ -79.679, 53.309 ], [ -79.683, 53.305 ], [ -79.661, 53.302 ] ] ] } },
{ "type": "Feature", "properties": { "featurecla": "Minor island", "min_zoom": 6.5, "scalerank": 7 }, "geometry": { "type": "Polygon", "coordinates": [ [ [ -79.034, 53.407 ], [ -78.991, 53.407 ], [ -78.997, 53.418 ], [ -79.034, 53.407 ] ] ] } },
{ "type": "Feature", "properties": { "featurecla": "Minor island", "min_zoom": 6.5, "scalerank": 7 }, "geometry": { "type": "Polygon", "coordinates": [ [ [ -79.103, 53.452 ], [ -79.118, 53.459 ], [ -79.154, 53.436 ], [ -79.11, 53.435 ], [ -79.114, 53.446 ], [ -79.103, 53.452 ] ] ] } },
{ "type": "Feature", "properties": { "featurecla": "Minor island", "min_zoom": 7.0, "scalerank": 8 }, "geometry": { "type": "Polygon", "coordinates": [ [ [ -79.258, 53.513 ], [ -79.239, 53.513 ], [ -79.215, 53.515 ], [ -79.258, 53.513 ] ] ] } },
{ "type": "Feature", "properties": { "featurecla": "Minor island", "min_zoom": 7.0, "scalerank": 8 }, "geometry": { "type": "Polygon", "coordinates": [ [ [ -132.971, 53.539 ], [ -133.018, 53.552 ], [ -133.016, 53.544 ], [ -132.989, 53.536 ], [ -132.981, 53.522 ], [ -132.954, 53.526 ], [ -132.971, 53.539 ] ] ] } },
{ "type": "Feature", "properties": { "featurecla": "Minor island", "min_zoom": 7.0, "scalerank": 8 }, "geometry": { "type": "Polygon", "coordinates": [ [ [ -79.164, 53.737 ], [ -79.157, 53.733 ], [ -79.135, 53.74 ], [ -79.151, 53.745 ], [ -79.164, 53.737 ] ] ] } },
{ "type": "Feature", "properties": { "featurecla": "Minor island", "min_zoom": 7.0, "scalerank": 8 }, "geometry": { "type": "Polygon", "coordinates": [ [ [ -133.162, 53.927 ], [ -133.178, 53.944 ], [ -133.202, 53.94 ], [ -133.204, 53.932 ], [ -133.197, 53.921 ], [ -133.181, 53.913 ], [ -133.162, 53.927 ] ] ] } },
{ "type": "Feature", "properties": { "featurecla": "Minor island", "min_zoom": 6.5, "scalerank": 7 }, "geometry": { "type": "Polygon", "coordinates": [ [ [ -79.483, 54.182 ], [ -79.505, 54.165 ], [ -79.474, 54.167 ], [ -79.463, 54.178 ], [ -79.429, 54.179 ], [ -79.454, 54.185 ], [ -79.483, 54.182 ] ] ] } },
{ "type": "Feature", "properties": { "featurecla": "Minor island", "min_zoom": 6.5, "scalerank": 7 }, "geometry": { "type": "Polygon", "coordinates": [ [ [ -79.42, 54.241 ], [ -79.413, 54.245 ], [ -79.436, 54.246 ], [ -79.466, 54.236 ], [ -79.42, 54.241 ] ] ] } },
{ "type": "Feature", "properties": { "featurecla": "Minor island", "min_zoom": 6.5, "scalerank": 7 }, "geometry": { "type": "Polygon", "coordinates": [ [ [ -79.407, 54.261 ], [ -79.415, 54.252 ], [ -79.382, 54.257 ], [ -79.414, 54.266 ], [ -79.407, 54.261 ] ] ] } },
{ "type": "Feature", "properties": { "featurecla": "Minor island", "min_zoom": 7.0, "scalerank": 8 }, "geometry": { "type": "Polygon", "coordinates": [ [ [ -79.549, 54.414 ], [ -79.524, 54.409 ], [ -79.526, 54.415 ], [ -79.551, 54.418 ], [ -79.549, 54.414 ] ] ] } },
{ "type": "Feature", "properties": { "featurecla": "Minor island", "min_zoom": 6.5, "scalerank": 7 }, "geometry": { "type": "Polygon", "coordinates": [ [ [ -57.125, 54.5 ], [ -57.186, 54.49 ], [ -57.181, 54.48 ], [ -57.124, 54.481 ], [ -57.112, 54.493 ], [ -57.125, 54.5 ] ] ] } },
{ "type": "Feature", "properties": { "featurecla": "Minor island", "min_zoom": 6.5, "scalerank": 7 }, "geometry": { "type": "Polygon", "coordinates": [ [ [ -67.23, 65.811 ], [ -67.362, 65.812 ], [ -67.41, 65.799 ], [ -67.32, 65.786 ], [ -67.237, 65.793 ], [ -67.23, 65.811 ] ] ] } },
{ "type": "Feature", "properties": { "featurecla": "Minor island", "min_zoom": 7.0, "scalerank": 8 }, "geometry": { "type": "Polygon", "coordinates": [ [ [ -17.844, 66.156 ], [ -17.831, 66.162 ], [ -17.83, 66.173 ], [ -17.88, 66.168 ], [ -17.879, 66.159 ], [ -17.844, 66.156 ] ] ] } }
]
}
